hour,lat,long,signal,network,operator,status,description,speed,satellites,precission,provider,activity,postal_code
00:01:16,41.67089,0.53407,2,vodafone,vodafone ES,0,STATE_IN_SERVICE,0.0,4.0,51.0,gps,STILL,250236.0
00:01:47,41.71431,1.77029,3,vodafone,vodafone ES,0,STATE_IN_SERVICE,0.0,2.0,128.0,gps,STILL,81786.0
00:01:59,41.44174,1.86907,11,orange,JAZZTEL,0,STATE_IN_SERVICE,0.2,5.0,25.0,gps,TILTING,80919.0
00:05:15,41.20896,1.55499,6,orange,Orange,0,STATE_IN_SERVICE,0.1,5.0,11.0,gps,TILTING,431634.0
00:06:54,41.44159,1.86879,10,orange,JAZZTEL,0,STATE_IN_SERVICE,0.3,3.0,19.0,gps,TILTING,80919.0
00:09:20,41.04247,0.73315,12,movistar,Movistar,0,STATE_IN_SERVICE,0.0,0.0,26.0,fused,STILL,431508.0
00:11:07,41.95519,2.64005,9,vodafone,vodafone ES,0,STATE_IN_SERVICE,0.0,0.0,88.0,fused,TILTING,170084.0
00:11:15,41.67099,0.53379,3,vodafone,vodafone ES,0,STATE_IN_SERVICE,0.2,6.0,9.0,gps,STILL,250236.0
00:11:33,41.60815,2.09291,51,vodafone,vodafone ES,0,STATE_IN_SERVICE,0.0,1.0,20.0,gps,STILL,80517.0
00:36:35,41.60773,2.09341,29,vodafone,vodafone ES,0,STATE_IN_SERVICE,0.2,1.0,46.0,gps,STILL,80517.0
00:39:58,41.71435,1.7698,7,vodafone,vodafone ES,0,STATE_IN_SERVICE,0.0,1.0,64.0,gps,STILL,81786.0
00:40:49,41.294,1.77782,4,movistar,movistar,0,STATE_IN_SERVICE,0.0,1.0,16.0,gps,TILTING,81483.0
00:50:00,41.71445,1.76929,6,vodafone,vodafone ES,0,STATE_IN_SERVICE,0.3,0.0,96.0,gps,STILL,81786.0
00:50:26,41.48865,2.13417,3,orange,Orange,0,STATE_IN_SERVICE,1.7,3.0,29.0,gps,UNKNOWN,82665.0
00:57:17,41.84139,2.24986,9,vodafone,vodafone ES,0,STATE_IN_SERVICE,0.0,5.0,17.0,gps,ON_FOOT,82690.0
01:11:16,41.29094,1.98302,4,vodafone,vodafone ES,0,STATE_IN_SERVICE,0.0,0.0,36.0,fused,STILL,80569.0
01:14:26,41.92356,2.3257,2,orange,Orange,0,STATE_IN_SERVICE,0.0,3.0,6.0,gps,STILL,82205.0
01:16:33,41.86381,2.65523,28,movistar,Movistar,0,STATE_IN_SERVICE,0.0,2.0,25.0,gps,STILL,171805.0
01:31:26,41.69197,2.49059,4,movistar,Movistar,0,STATE_IN_SERVICE,0.0,2.0,18.0,gps,STILL,82021.0
01:41:15,41.67128,0.53368,3,vodafone,vodafone ES,0,STATE_IN_SERVICE,0.0,7.0,26.0,gps,STILL,250236.0
01:47:14,41.92372,2.32581,2,orange,Orange,0,STATE_IN_SERVICE,0.0,2.0,0.0,gps,STILL,82205.0
01:51:17,41.67109,0.53365,3,vodafone,vodafone ES,0,STATE_IN_SERVICE,0.1,5.0,19.0,gps,STILL,250236.0
01:56:59,41.41996,2.22449,19,orange,Orange,0,STATE_IN_SERVICE,0.2,0.0,43.0,fused,STILL,81944.0
01:57:27,42.62897,1.11528,15,,,0,STATE_IN_SERVICE,0.0,0.0,24.0,fused,STILL,250864.0
01:59:19,41.42258,2.22174,22,orange,Orange,0,STATE_IN_SERVICE,9.5,0.0,43.0,fused,STILL,81944.0
02:01:17,41.67062,0.5333,3,vodafone,vodafone ES,0,STATE_IN_SERVICE,0.4,1.0,22.0,gps,STILL,250236.0
02:11:18,41.6712,0.53384,3,vodafone,vodafone ES,0,STATE_IN_SERVICE,0.5,4.0,13.0,gps,STILL,250236.0
02:51:15,41.67102,0.53373,3,vodafone,vodafone ES,0,STATE_IN_SERVICE,0.0,5.0,27.0,gps,STILL,250236.0
02:53:14,41.26264,1.77963,11,movistar,Movistar,0,STATE_IN_SERVICE,0.0,0.0,51.0,fused,STILL,82310.0
04:33:58,41.29405,1.77831,5,movistar,movistar,0,STATE_IN_SERVICE,0.0,2.0,24.0,gps,TILTING,81483.0
04:43:19,41.26269,1.77969,11,movistar,Movistar,0,STATE_IN_SERVICE,0.0,0.0,46.0,fused,STILL,82310.0
04:48:09,41.41997,2.22451,14,orange,Orange,0,STATE_IN_SERVICE,0.1,0.0,48.0,fused,STILL,81944.0
04:50:19,41.42084,2.2258,13,orange,Orange,0,STATE_IN_SERVICE,4.0,0.0,40.0,fused,STILL,81944.0
04:52:54,41.42262,2.22163,13,orange,Orange,0,STATE_IN_SERVICE,9.3,0.0,36.0,fused,STILL,81944.0
04:55:09,41.4199,2.22438,13,orange,Orange,0,STATE_IN_SERVICE,10.1,0.0,36.0,fused,STILL,81944.0
04:57:31,41.42262,2.22163,13,orange,Orange,0,STATE_IN_SERVICE,9.6,0.0,36.0,fused,STILL,81944.0
04:58:09,40.54745,0.52233,2,vodafone,vodafone ES,0,STATE_IN_SERVICE,0.0,1.0,33.0,gps,STILL,430043.0
04:59:31,41.95525,2.63967,17,orange,JAZZTEL,0,STATE_IN_SERVICE,0.0,4.0,18.0,gps,STILL,170084.0
05:00:50,7.6707,98.76449,4,DTAC,DTAC,0,STATE_IN_SERVICE,21.4,5.0,23.0,gps,UNKNOWN,
05:01:39,7.67138,98.76692,4,DTAC,DTAC,0,STATE_IN_SERVICE,20.5,5.0,34.0,gps,STILL,
05:02:25,7.67278,98.76892,6,DTAC,DTAC,0,STATE_IN_SERVICE,21.1,8.0,4.0,gps,IN_VEHICLE,
05:02:28,41.41994,2.22447,13,orange,Orange,0,STATE_IN_SERVICE,4.6,0.0,36.0,fused,STILL,81944.0
05:03:13,7.67427,98.77094,6,DTAC,DTAC,0,STATE_IN_SERVICE,20.8,4.0,11.0,gps,IN_VEHICLE,
05:03:22,41.54544,1.89627,14,orange,Orange,0,STATE_IN_SERVICE,0.0,0.0,36.0,fused,IN_VEHICLE,81477.0
05:03:59,7.67633,98.77247,18,DTAC,DTAC,0,STATE_IN_SERVICE,22.1,4.0,3.0,gps,TILTING,
05:04:32,41.42084,2.2258,13,orange,Orange,0,STATE_IN_SERVICE,4.3,0.0,40.0,fused,STILL,81944.0
05:04:46,7.67852,98.77364,13,DTAC,DTAC,0,STATE_IN_SERVICE,21.1,2.0,11.0,gps,TILTING,
05:05:33,7.68088,98.77294,11,DTAC,DTAC,0,STATE_IN_SERVICE,20.9,6.0,13.0,gps,STILL,
05:06:36,7.68388,98.77147,10,DTAC,DTAC,0,STATE_IN_SERVICE,21.1,5.0,23.0,gps,IN_VEHICLE,
05:06:36,41.42259,2.22172,13,orange,Orange,0,STATE_IN_SERVICE,11.4,0.0,40.0,fused,STILL,81944.0
05:07:28,7.68682,98.77052,10,DTAC,DTAC,0,STATE_IN_SERVICE,23.7,4.0,23.0,gps,IN_VEHICLE,
05:08:17,7.68867,98.76923,12,DTAC,DTAC,0,STATE_IN_SERVICE,18.3,4.0,11.0,gps,IN_VEHICLE,
05:09:03,7.69064,98.76892,12,DTAC,DTAC,0,STATE_IN_SERVICE,17.2,5.0,11.0,gps,IN_VEHICLE,
05:09:49,7.69233,98.76799,13,DTAC,DTAC,0,STATE_IN_SERVICE,16.7,5.0,4.0,gps,TILTING,
05:10:36,7.69474,98.76818,13,DTAC,DTAC,0,STATE_IN_SERVICE,20.5,10.0,3.0,gps,IN_VEHICLE,
05:11:25,7.6976,98.76895,13,DTAC,DTAC,0,STATE_IN_SERVICE,24.1,6.0,25.0,gps,IN_VEHICLE,
05:12:14,7.70057,98.76977,12,DTAC,DTAC,0,STATE_IN_SERVICE,25.0,7.0,22.0,gps,IN_VEHICLE,
05:13:00,7.70327,98.77076,12,DTAC,DTAC,0,STATE_IN_SERVICE,24.9,7.0,4.0,gps,TILTING,
05:13:46,7.70595,98.77161,19,DTAC,DTAC,0,STATE_IN_SERVICE,24.3,5.0,4.0,gps,IN_VEHICLE,
05:14:40,7.70922,98.77215,11,DTAC,DTAC,0,STATE_IN_SERVICE,24.4,2.0,44.0,gps,IN_VEHICLE,
05:15:29,7.71211,98.7729,13,DTAC,DTAC,0,STATE_IN_SERVICE,24.3,3.0,27.0,gps,IN_VEHICLE,
05:16:21,7.7154,98.77331,13,DTAC,DTAC,0,STATE_IN_SERVICE,25.3,1.0,14.0,gps,STILL,
05:17:15,7.71868,98.77336,13,DTAC,DTAC,0,STATE_IN_SERVICE,24.2,2.0,38.0,gps,STILL,
05:18:05,41.6209,2.67625,14,movistar,Movistar,0,STATE_IN_SERVICE,0.0,1.0,37.0,gps,STILL,81635.0
05:26:28,41.2938,1.77834,5,movistar,movistar,0,STATE_IN_SERVICE,0.0,2.0,21.0,gps,TILTING,81483.0
05:27:54,41.82557,1.89581,13,yoigo,YOIGO,0,STATE_IN_SERVICE,0.0,4.0,32.0,gps,ON_FOOT,81918.0
05:28:14,41.82605,1.89569,14,yoigo,YOIGO,0,STATE_IN_SERVICE,10.0,1.0,128.0,gps,ON_FOOT,81918.0
05:35:57,7.73746,98.77037,16,DTAC,DTAC,0,STATE_IN_SERVICE,6.7,2.0,29.0,gps,TILTING,
05:44:19,7.73792,98.7707,15,DTAC,DTAC,0,STATE_IN_SERVICE,0.4,10.0,8.0,gps,ON_FOOT,
05:46:51,7.73902,98.77089,10,DTAC,DTAC,0,STATE_IN_SERVICE,2.9,2.0,29.0,gps,ON_FOOT,
05:48:57,7.73983,98.77064,9,DTAC,DTAC,0,STATE_IN_SERVICE,2.7,6.0,15.0,gps,ON_FOOT,
05:49:22,7.74,98.77053,9,DTAC,DTAC,0,STATE_IN_SERVICE,3.2,3.0,11.0,gps,ON_FOOT,
05:51:26,7.73915,98.77086,9,DTAC,DTAC,0,STATE_IN_SERVICE,2.9,2.0,10.0,gps,ON_FOOT,
05:53:43,7.73846,98.77245,9,DTAC,DTAC,0,STATE_IN_SERVICE,5.0,8.0,14.0,gps,ON_FOOT,
05:55:38,7.73841,98.77287,9,DTAC,DTAC,0,STATE_IN_SERVICE,1.5,2.0,20.0,gps,ON_FOOT,
05:56:34,7.7391,98.77303,9,DTAC,DTAC,0,STATE_IN_SERVICE,5.0,2.0,13.0,gps,ON_FOOT,
05:57:56,7.73991,98.77305,9,DTAC,DTAC,0,STATE_IN_SERVICE,4.0,4.0,7.0,gps,ON_FOOT,
05:58:10,41.29385,1.77786,5,movistar,movistar,0,STATE_IN_SERVICE,0.1,2.0,32.0,gps,TILTING,81483.0
05:58:42,41.42253,2.22105,17,orange,Orange,0,STATE_IN_SERVICE,0.1,4.0,48.0,gps,ON_BICYCLE,81944.0
05:59:23,7.74057,98.7735,9,DTAC,DTAC,0,STATE_IN_SERVICE,3.7,4.0,19.0,gps,ON_FOOT,
05:59:33,41.42282,2.22147,16,orange,Orange,0,STATE_IN_SERVICE,3.4,7.0,16.0,gps,TILTING,81944.0
06:00:42,40.54726,0.52236,29,vodafone,vodafone ES,0,STATE_IN_SERVICE,0.0,1.0,33.0,gps,STILL,430043.0
06:01:03,7.74153,98.7742,9,DTAC,DTAC,0,STATE_IN_SERVICE,4.7,4.0,28.0,gps,ON_FOOT,
06:02:24,7.74155,98.77449,9,DTAC,DTAC,0,STATE_IN_SERVICE,1.4,6.0,30.0,gps,STILL,
06:02:50,7.74168,98.77472,9,DTAC,DTAC,0,STATE_IN_SERVICE,4.0,6.0,13.0,gps,STILL,
06:03:04,42.23218,2.28577,11,movistar,Movistar,0,STATE_IN_SERVICE,0.0,5.0,32.0,gps,UNKNOWN,171674.0
06:03:44,42.23277,2.28606,11,movistar,Movistar,0,STATE_IN_SERVICE,6.2,9.0,16.0,gps,ON_FOOT,171674.0
06:04:15,7.74223,98.77442,9,DTAC,DTAC,0,STATE_IN_SERVICE,2.9,7.0,14.0,gps,ON_FOOT,
06:06:09,7.74255,98.77384,9,DTAC,DTAC,0,STATE_IN_SERVICE,2.3,7.0,8.0,gps,ON_FOOT,
06:06:35,7.74276,98.77361,9,DTAC,DTAC,0,STATE_IN_SERVICE,4.7,4.0,23.0,gps,ON_FOOT,
06:07:49,7.7433,98.77378,9,DTAC,DTAC,0,STATE_IN_SERVICE,3.0,10.0,21.0,gps,ON_FOOT,
06:08:39,41.20884,1.55523,4,orange,Orange,0,STATE_IN_SERVICE,0.0,1.0,10.0,gps,TILTING,431634.0
06:09:13,41.29472,1.77771,5,movistar,movistar,0,STATE_IN_SERVICE,0.5,3.0,44.0,gps,TILTING,81483.0
06:10:26,7.7429,98.77426,12,DTAC,DTAC,0,STATE_IN_SERVICE,1.6,6.0,14.0,gps,ON_FOOT,
06:10:49,7.74249,98.77458,13,DTAC,DTAC,0,STATE_IN_SERVICE,8.9,6.0,11.0,gps,ON_FOOT,
06:10:54,42.22431,2.24535,7,movistar,Movistar,0,STATE_IN_SERVICE,29.2,6.0,32.0,gps,IN_VEHICLE,171674.0
06:11:10,41.42259,2.22096,17,orange,Orange,0,STATE_IN_SERVICE,0.3,4.0,32.0,gps,TILTING,81944.0
06:11:39,7.74261,98.77441,13,DTAC,DTAC,0,STATE_IN_SERVICE,1.6,5.0,19.0,gps,ON_FOOT,
06:11:57,7.74232,98.77442,13,DTAC,DTAC,0,STATE_IN_SERVICE,6.3,3.0,13.0,gps,ON_FOOT,
06:13:14,7.74312,98.77443,13,DTAC,DTAC,0,STATE_IN_SERVICE,4.1,9.0,14.0,gps,ON_FOOT,
06:14:36,7.74323,98.77426,13,DTAC,DTAC,0,STATE_IN_SERVICE,1.0,3.0,12.0,gps,UNKNOWN,
06:15:57,42.19733,2.19537,5,movistar,Movistar,0,STATE_IN_SERVICE,60.6,5.0,24.0,gps,IN_VEHICLE,171479.0
06:18:48,41.42236,2.22158,14,orange,Orange,0,STATE_IN_SERVICE,0.5,2.0,128.0,gps,TILTING,81944.0
06:21:16,41.50343,2.39185,6,vodafone,vodafone ES,0,STATE_IN_SERVICE,0.0,3.0,96.0,gps,TILTING,82191.0
06:21:29,40.54751,0.52156,29,vodafone,vodafone ES,0,STATE_IN_SERVICE,0.2,2.0,38.0,gps,STILL,430043.0
06:24:12,41.3215,2.09496,50,vodafone,vodafone ES,0,STATE_IN_SERVICE,0.0,0.0,39.0,fused,STILL,81691.0
06:24:20,41.42247,2.22086,15,orange,Orange,0,STATE_IN_SERVICE,0.7,2.0,64.0,gps,TILTING,81944.0
06:26:41,42.19106,2.19868,5,movistar,Movistar,0,STATE_IN_SERVICE,8.8,6.0,16.0,gps,IN_VEHICLE,171479.0
06:30:37,41.42271,2.22131,16,orange,Orange,0,STATE_IN_SERVICE,0.4,5.0,64.0,gps,TILTING,81944.0
06:35:49,7.74333,98.77425,31,DTAC,DTAC,0,STATE_IN_SERVICE,0.0,4.0,19.0,gps,UNKNOWN,
06:38:49,42.11556,2.20511,3,movistar,Movistar,0,STATE_IN_SERVICE,40.3,6.0,32.0,gps,IN_VEHICLE,81311.0
06:40:41,41.62019,2.67609,16,movistar,Movistar,0,STATE_IN_SERVICE,0.5,0.0,44.0,gps,UNKNOWN,81635.0
06:44:51,41.85092,0.96079,11,orange,Orange,0,STATE_IN_SERVICE,0.0,5.0,11.0,gps,STILL,250791.0
06:48:53,7.74342,98.77393,12,DTAC,DTAC,0,STATE_IN_SERVICE,0.2,7.0,11.0,gps,STILL,
06:56:55,42.26562,3.01841,5,movistar,Movistar,0,STATE_IN_SERVICE,0.0,0.0,37.0,fused,ON_FOOT,172305.0
06:59:51,41.26269,1.77969,11,movistar,Movistar,0,STATE_IN_SERVICE,0.0,0.0,46.0,fused,STILL,82310.0
07:05:47,41.45927,1.95247,15,orange,Orange,0,STATE_IN_SERVICE,27.4,6.0,128.0,gps,IN_VEHICLE,81960.0
07:09:34,41.45866,1.95368,13,orange,Orange,0,STATE_IN_SERVICE,0.0,0.0,128.0,gps,UNKNOWN,81960.0
07:14:10,41.04248,0.73316,10,movistar,Movistar,0,STATE_IN_SERVICE,0.0,0.0,25.0,fused,STILL,431508.0
07:19:22,3.73862,8.79369,13,GETESA,GETESA,0,STATE_IN_SERVICE,55.0,4.0,12.0,gps,IN_VEHICLE,
07:22:56,41.40365,1.69831,27,orange,JAZZTEL,0,STATE_IN_SERVICE,0.0,6.0,19.0,gps,STILL,81748.0
07:34:50,3.75303,8.78165,14,GETESA,GETESA,0,STATE_IN_SERVICE,15.1,9.0,6.0,gps,UNKNOWN,
07:35:00,41.45847,1.95257,12,orange,Orange,0,STATE_IN_SERVICE,0.2,2.0,48.0,gps,STILL,81960.0
07:35:04,40.54719,0.52213,29,vodafone,vodafone ES,0,STATE_IN_SERVICE,0.0,2.0,33.0,gps,STILL,430043.0
07:36:52,3.75507,8.78103,14,GETESA,GETESA,0,STATE_IN_SERVICE,1.4,11.0,7.0,gps,UNKNOWN,
07:39:17,41.19399,1.04537,6,orange,Orange,0,STATE_IN_SERVICE,55.7,11.0,8.0,gps,IN_VEHICLE,430075.0
07:40:40,41.04249,0.73314,10,movistar,Movistar,0,STATE_IN_SERVICE,0.0,0.0,24.0,fused,STILL,431508.0
07:40:57,41.18194,1.04741,1,orange,Orange,0,STATE_IN_SERVICE,45.8,11.0,10.0,gps,IN_VEHICLE,430810.0
07:41:30,7.74333,98.77418,16,DTAC,DTAC,0,STATE_IN_SERVICE,0.0,5.0,6.0,gps,UNKNOWN,
07:51:19,41.67118,0.5336,3,vodafone,vodafone ES,0,STATE_IN_SERVICE,0.0,0.0,28.0,gps,TILTING,250236.0
07:53:10,41.4586,1.95281,10,orange,Orange,0,STATE_IN_SERVICE,0.1,7.0,16.0,gps,ON_FOOT,81960.0
07:57:20,41.30636,2.00688,12,movistar,movistar,0,STATE_IN_SERVICE,0.0,0.0,39.0,fused,TILTING,80898.0
07:57:26,41.75426,1.85907,13,movistar,Movistar,0,STATE_IN_SERVICE,14.2,7.0,29.0,gps,IN_VEHICLE,82135.0
07:57:28,41.75416,1.85938,13,movistar,Movistar,0,STATE_IN_SERVICE,62.4,7.0,7.0,gps,IN_VEHICLE,82135.0
08:03:14,41.62224,2.42686,1,movistar,Movistar,0,STATE_IN_SERVICE,0.0,5.0,18.0,gps,UNKNOWN,80752.0
08:08:33,41.3712,2.09246,1,orange,Orange,0,STATE_IN_SERVICE,8.7,5.0,32.0,gps,IN_VEHICLE,80771.0
08:09:19,41.37485,2.09293,1,orange,Orange,0,STATE_IN_SERVICE,31.8,5.0,16.0,gps,IN_VEHICLE,80771.0
08:10:14,41.61981,2.43208,0,movistar,Movistar,0,STATE_IN_SERVICE,13.0,5.0,19.0,gps,IN_VEHICLE,80752.0
08:11:13,41.61987,2.43184,6,movistar,Movistar,0,STATE_IN_SERVICE,1.3,9.0,7.0,gps,STILL,80752.0
08:14:26,41.95513,2.63948,10,orange,JAZZTEL,0,STATE_IN_SERVICE,1.5,7.0,22.0,gps,ON_FOOT,170084.0
08:15:28,41.45855,1.95257,15,orange,Orange,0,STATE_IN_SERVICE,0.1,11.0,12.0,gps,STILL,81960.0
08:16:18,41.61971,2.4331,5,movistar,Movistar,0,STATE_IN_SERVICE,1.3,8.0,14.0,gps,IN_VEHICLE,80752.0
08:24:49,3.75452,8.78078,20,GETESA,GETESA,0,STATE_IN_SERVICE,0.1,0.0,47.0,gps,UNKNOWN,
08:25:02,42.14514,2.45994,8,orange,JAZZTEL,0,STATE_IN_SERVICE,0.0,9.0,17.0,gps,ON_FOOT,171390.0
08:27:26,3.75472,8.78086,19,GETESA,GETESA,0,STATE_IN_SERVICE,0.5,3.0,22.0,gps,STILL,
08:28:34,42.14356,2.45975,5,orange,JAZZTEL,0,STATE_IN_SERVICE,3.6,7.0,26.0,gps,ON_FOOT,171390.0
08:29:49,41.45842,1.95275,15,orange,Orange,0,STATE_IN_SERVICE,0.1,2.0,24.0,gps,TILTING,81960.0
08:29:57,40.54718,0.52257,28,vodafone,vodafone ES,0,STATE_IN_SERVICE,0.0,1.0,28.0,gps,STILL,430043.0
08:31:45,3.75265,8.77136,18,GETESA,GETESA,0,STATE_IN_SERVICE,28.1,4.0,36.0,gps,IN_VEHICLE,
08:32:53,3.75309,8.75865,18,GETESA,GETESA,0,STATE_IN_SERVICE,74.8,4.0,16.0,gps,IN_VEHICLE,
08:33:50,3.75073,8.75531,18,GETESA,GETESA,0,STATE_IN_SERVICE,28.7,3.0,15.0,gps,IN_VEHICLE,
08:34:36,3.75042,8.75284,18,GETESA,GETESA,0,STATE_IN_SERVICE,21.6,6.0,6.0,gps,IN_VEHICLE,
08:34:54,41.53228,1.90167,13,movistar,Movistar,0,STATE_IN_SERVICE,76.3,11.0,18.0,gps,IN_VEHICLE,80765.0
08:37:13,3.7491,8.75457,14,GETESA,GETESA,0,STATE_IN_SERVICE,5.5,4.0,10.0,gps,STILL,
08:38:25,3.74823,8.75529,13,GETESA,GETESA,0,STATE_IN_SERVICE,6.3,3.0,13.0,gps,IN_VEHICLE,
08:39:28,3.74683,8.75543,13,GETESA,GETESA,0,STATE_IN_SERVICE,8.9,2.0,23.0,gps,UNKNOWN,
08:40:00,41.53015,2.29837,6,movistar,Movistar,0,STATE_IN_SERVICE,0.0,3.0,19.0,gps,ON_FOOT,82969.0
08:40:29,41.53035,2.29862,8,movistar,Movistar,0,STATE_IN_SERVICE,3.7,0.0,26.0,gps,TILTING,82969.0
08:41:49,3.74658,8.75537,13,GETESA,GETESA,0,STATE_IN_SERVICE,0.7,2.0,9.0,gps,STILL,
08:42:13,41.53002,2.29846,3,movistar,Movistar,0,STATE_IN_SERVICE,1.3,1.0,17.0,gps,STILL,82969.0
08:44:07,41.41379,2.00634,20,movistar,Movistar,0,STATE_IN_SERVICE,121.4,4.0,12.0,gps,IN_VEHICLE,81574.0
08:44:08,41.41359,2.00651,20,movistar,Movistar,0,STATE_IN_SERVICE,117.6,4.0,13.0,gps,IN_VEHICLE,81574.0
08:45:48,3.74593,8.75542,13,GETESA,GETESA,0,STATE_IN_SERVICE,1.1,4.0,25.0,gps,STILL,
08:45:54,41.40171,2.0071,6,movistar,movistar,0,STATE_IN_SERVICE,0.0,2.0,24.0,gps,IN_VEHICLE,82634.0
08:47:47,41.40146,2.00717,4,movistar,movistar,0,STATE_IN_SERVICE,0.9,2.0,14.0,gps,IN_VEHICLE,82634.0
08:52:01,3.75394,8.7802,11,GETESA,GETESA,0,STATE_IN_SERVICE,16.6,2.0,26.0,gps,IN_VEHICLE,
08:52:06,42.21864,2.55359,14,movistar,Movistar,0,STATE_IN_SERVICE,0.0,6.0,64.0,gps,UNKNOWN,171851.0
08:52:22,41.82838,2.89273,5,movistar,Movistar,0,STATE_IN_SERVICE,0.0,0.0,128.0,gps,ON_FOOT,170890.0
08:52:52,3.75484,8.78115,11,GETESA,GETESA,0,STATE_IN_SERVICE,10.2,1.0,21.0,gps,IN_VEHICLE,
08:55:05,41.49731,2.1088,8,orange,JAZZTEL,0,STATE_IN_SERVICE,0.1,3.0,28.0,gps,TILTING,82665.0
09:02:01,41.32691,0.63851,23,Solo llamadas de emergencia,Solo llamadas de emergencia,0,STATE_IN_SERVICE,0.0,3.0,27.0,gps,TILTING,250560.0
09:02:21,41.32722,0.6386,27,Solo llamadas de emergencia,Solo llamadas de emergencia,0,STATE_IN_SERVICE,6.3,6.0,8.0,gps,ON_FOOT,250560.0
09:02:41,41.40172,2.00689,2,movistar,movistar,0,STATE_IN_SERVICE,0.2,6.0,8.0,gps,IN_VEHICLE,82634.0
09:05:34,41.32713,0.63723,26,Solo llamadas de emergencia,Solo llamadas de emergencia,0,STATE_IN_SERVICE,2.2,2.0,14.0,gps,ON_FOOT,250560.0
09:07:45,41.32536,0.63874,21,Solo llamadas de emergencia,Solo llamadas de emergencia,0,STATE_IN_SERVICE,6.4,3.0,10.0,gps,IN_VEHICLE,250560.0
09:09:03,41.32575,0.63953,17,Solo llamadas de emergencia,Solo llamadas de emergencia,0,STATE_IN_SERVICE,3.6,2.0,26.0,gps,IN_VEHICLE,250560.0
09:10:45,41.32689,0.63875,17,Solo llamadas de emergencia,Solo llamadas de emergencia,0,STATE_IN_SERVICE,5.0,9.0,14.0,gps,IN_VEHICLE,250560.0
09:14:35,41.24676,1.79691,3,vodafone,vodafone ES,0,STATE_IN_SERVICE,0.0,0.0,82.0,fused,STILL,82310.0
09:17:50,41.37571,2.08778,3,movistar,movistar,0,STATE_IN_SERVICE,14.0,9.0,25.0,gps,ON_FOOT,80771.0
09:25:22,41.34592,2.07406,20,movistar,Movistar,0,STATE_IN_SERVICE,82.0,5.0,20.0,gps,IN_VEHICLE,81691.0
09:25:37,41.45867,1.95266,12,orange,Orange,0,STATE_IN_SERVICE,0.0,1.0,96.0,gps,TILTING,81960.0
09:26:15,41.95521,2.64001,7,vodafone,vodafone ES,0,STATE_IN_SERVICE,0.0,0.0,37.0,fused,IN_VEHICLE,170084.0
09:27:23,41.45905,1.95233,19,orange,Orange,0,STATE_IN_SERVICE,1.7,8.0,24.0,gps,ON_FOOT,81960.0
09:28:39,41.16862,0.97659,5,orange,Orange,0,STATE_IN_SERVICE,5.8,4.0,17.0,gps,IN_VEHICLE,431286.0
09:30:46,41.53041,2.29873,6,movistar,Movistar,0,STATE_IN_SERVICE,0.1,0.0,30.0,gps,TILTING,82969.0
09:31:42,-8.05062,-34.93841,15,VIVO,VIVO,0,STATE_IN_SERVICE,0.0,7.0,23.0,gps,STILL,
09:35:56,41.63045,2.29995,12,vodafone,vodafone ES,0,STATE_IN_SERVICE,0.0,8.0,24.0,gps,ON_FOOT,80863.0
09:37:00,-8.05085,-34.93838,14,VIVO,VIVO,0,STATE_IN_SERVICE,0.3,2.0,47.0,gps,TILTING,
09:37:14,-8.05059,-34.93843,15,VIVO,VIVO,0,STATE_IN_SERVICE,7.8,5.0,36.0,gps,TILTING,
09:39:36,-8.05084,-34.93843,15,VIVO,VIVO,0,STATE_IN_SERVICE,0.7,5.0,21.0,gps,TILTING,
09:39:38,41.34828,0.65486,11,Solo llamadas de emergencia,Solo llamadas de emergencia,0,STATE_IN_SERVICE,5.9,5.0,19.0,gps,IN_VEHICLE,251018.0
09:40:05,42.15466,2.9894,12,yoigo,Yoigo,0,STATE_IN_SERVICE,36.9,12.0,14.0,gps,IN_VEHICLE,171766.0
09:41:30,41.42602,2.21199,15,orange,JAZZTEL,0,STATE_IN_SERVICE,0.0,5.0,7.0,gps,TILTING,81944.0
09:44:58,42.15595,2.99038,6,yoigo,Yoigo,0,STATE_IN_SERVICE,1.5,5.0,27.0,gps,UNKNOWN,171766.0
09:45:28,41.45922,1.95219,19,orange,Orange,0,STATE_IN_SERVICE,0.0,6.0,64.0,gps,IN_VEHICLE,81960.0
09:46:07,41.32769,0.63841,10,Solo llamadas de emergencia,Solo llamadas de emergencia,0,STATE_IN_SERVICE,3.3,5.0,26.0,gps,IN_VEHICLE,250560.0
09:48:15,41.53089,2.29797,4,movistar,Movistar,0,STATE_IN_SERVICE,0.3,5.0,14.0,gps,ON_FOOT,82969.0
09:50:13,41.32708,0.63864,8,Solo llamadas de emergencia,Solo llamadas de emergencia,0,STATE_IN_SERVICE,1.0,6.0,12.0,gps,TILTING,250560.0
09:50:19,41.45904,1.95215,18,orange,Orange,0,STATE_IN_SERVICE,0.8,3.0,32.0,gps,TILTING,81960.0
09:51:01,41.78114,3.02961,9,vodafone,vodafone ES,0,STATE_IN_SERVICE,0.6,4.0,28.0,gps,ON_FOOT,171609.0
09:51:09,41.65141,2.18041,2,movistar,Movistar,0,STATE_IN_SERVICE,0.0,3.0,8.0,gps,UNKNOWN,80333.0
09:53:14,41.73342,2.13753,10,vodafone,vodafone ES,0,STATE_IN_SERVICE,61.0,4.0,29.0,gps,IN_VEHICLE,80641.0
09:53:18,41.4589,1.9524,12,orange,Orange,0,STATE_IN_SERVICE,0.5,3.0,32.0,gps,ON_FOOT,81960.0
09:53:59,41.75077,1.8635,16,orange,Orange,0,STATE_IN_SERVICE,11.6,7.0,64.0,gps,STILL,82135.0
09:54:05,41.7417,2.13296,10,vodafone,vodafone ES,0,STATE_IN_SERVICE,70.3,8.0,25.0,gps,IN_VEHICLE,80641.0
09:54:18,41.65083,2.17921,4,movistar,Movistar,0,STATE_IN_SERVICE,2.3,6.0,10.0,gps,ON_BICYCLE,80333.0
09:54:55,41.53184,2.298,11,movistar,Movistar,0,STATE_IN_SERVICE,0.6,1.0,16.0,gps,STILL,82969.0
09:54:57,41.74937,2.12438,10,vodafone,vodafone ES,0,STATE_IN_SERVICE,76.9,5.0,30.0,gps,IN_VEHICLE,80641.0
09:55:10,41.7496,1.86473,19,orange,Orange,0,STATE_IN_SERVICE,8.4,4.0,64.0,gps,STILL,82135.0
09:56:09,41.75057,2.11922,10,vodafone,vodafone ES,0,STATE_IN_SERVICE,22.5,4.0,24.0,gps,IN_VEHICLE,80641.0
09:56:23,41.74624,1.86117,19,orange,Orange,0,STATE_IN_SERVICE,23.4,5.0,48.0,gps,STILL,82135.0
09:56:27,41.65106,2.17874,2,movistar,Movistar,0,STATE_IN_SERVICE,1.3,6.0,11.0,gps,ON_BICYCLE,80333.0
09:56:28,41.58645,2.17938,7,movistar,pepephone,0,STATE_IN_SERVICE,0.0,0.0,51.0,fused,STILL,81568.0
09:56:30,41.60778,2.09301,26,vodafone,vodafone ES,0,STATE_IN_SERVICE,0.0,12.0,10.0,gps,IN_VEHICLE,80517.0
09:57:05,41.60779,2.09327,14,vodafone,vodafone ES,0,STATE_IN_SERVICE,2.2,1.0,13.0,gps,UNKNOWN,80517.0
09:58:14,-8.05029,-34.93873,12,VIVO,VIVO,0,STATE_IN_SERVICE,0.2,5.0,47.0,gps,TILTING,
10:00:03,41.53222,2.29823,14,movistar,Movistar,0,STATE_IN_SERVICE,0.5,1.0,13.0,gps,TILTING,82969.0
10:01:12,41.53154,2.29777,14,movistar,Movistar,0,STATE_IN_SERVICE,4.4,1.0,12.0,gps,IN_VEHICLE,82969.0
10:05:03,41.53157,2.29749,14,movistar,Movistar,0,STATE_IN_SERVICE,0.4,3.0,30.0,gps,IN_VEHICLE,82969.0
10:06:11,41.53207,2.29759,12,movistar,Movistar,0,STATE_IN_SERVICE,2.9,1.0,45.0,gps,STILL,82969.0
10:06:32,41.6126,2.26667,0,vodafone,vodafone ES,0,STATE_IN_SERVICE,77.5,5.0,32.0,gps,IN_VEHICLE,81075.0
10:08:04,41.65271,2.17637,2,movistar,Movistar,0,STATE_IN_SERVICE,1.4,5.0,9.0,gps,IN_VEHICLE,80333.0
10:13:32,41.23995,1.57687,7,vodafone,vodafone ES,0,STATE_IN_SERVICE,0.0,0.0,36.0,fused,IN_VEHICLE,430249.0
10:14:46,41.44701,2.20851,13,movistar,Movistar,0,STATE_IN_SERVICE,0.7,0.0,30.0,fused,ON_FOOT,82457.0
10:15:03,40.54734,0.52223,30,vodafone,vodafone ES,0,STATE_IN_SERVICE,0.0,0.0,41.0,gps,STILL,430043.0
10:17:59,41.51065,2.19578,14,movistar,Movistar,0,STATE_IN_SERVICE,0.0,9.0,16.0,gps,ON_FOOT,81056.0
10:18:25,41.75415,1.85965,12,movistar,Movistar,0,STATE_IN_SERVICE,0.0,1.0,22.0,gps,TILTING,82135.0
10:19:13,41.51046,2.19584,7,movistar,Movistar,0,STATE_IN_SERVICE,1.1,7.0,18.0,gps,UNKNOWN,81056.0
10:19:25,41.32688,0.63782,1,orange,Orange,0,STATE_IN_SERVICE,2.7,5.0,8.0,gps,TILTING,250560.0
10:20:33,-8.05078,-34.93835,15,VIVO,VIVO,0,STATE_IN_SERVICE,0.2,6.0,11.0,gps,TILTING,
10:21:24,41.65055,2.17405,3,movistar,Movistar,0,STATE_IN_SERVICE,1.4,9.0,6.0,gps,UNKNOWN,80333.0
10:23:02,42.00061,2.27729,11,orange,Orange,0,STATE_IN_SERVICE,0.0,0.0,37.0,fused,STILL,81120.0
10:23:45,41.22443,1.53517,10,orange,Orange,0,STATE_IN_SERVICE,0.0,2.0,24.0,gps,UNKNOWN,431634.0
10:25:47,41.64985,2.17301,4,movistar,Movistar,0,STATE_IN_SERVICE,1.6,10.0,5.0,gps,STILL,80333.0
10:27:49,41.24009,1.57718,7,vodafone,vodafone ES,0,STATE_IN_SERVICE,0.1,0.0,24.0,fused,IN_VEHICLE,430249.0
10:30:38,-8.05075,-34.93854,14,VIVO,VIVO,0,STATE_IN_SERVICE,0.1,4.0,35.0,gps,TILTING,
10:31:17,41.62507,2.28653,13,vodafone,vodafone ES,0,STATE_IN_SERVICE,0.8,1.0,12.0,gps,ON_FOOT,80410.0
10:35:15,41.32823,2.09286,11,vodafone,vodafone ES,0,STATE_IN_SERVICE,4.2,2.0,49.0,gps,ON_FOOT,81691.0
10:37:54,41.22488,1.53482,14,orange,Orange,0,STATE_IN_SERVICE,2.4,3.0,57.0,gps,UNKNOWN,431634.0
10:38:08,41.40355,1.69849,7,orange,JAZZTEL,0,STATE_IN_SERVICE,0.1,4.0,14.0,gps,TILTING,81748.0
10:42:44,41.64877,2.17445,4,movistar,Movistar,0,STATE_IN_SERVICE,0.0,9.0,15.0,gps,IN_VEHICLE,80333.0
10:44:54,41.64871,2.17532,4,movistar,Movistar,0,STATE_IN_SERVICE,2.0,8.0,18.0,gps,STILL,80333.0
10:45:12,41.74526,2.62607,13,movistar,pepephone,0,STATE_IN_SERVICE,3.7,10.0,15.0,gps,ON_FOOT,170834.0
10:45:16,-8.05059,-34.93838,15,VIVO,VIVO,0,STATE_IN_SERVICE,0.1,7.0,23.0,gps,TILTING,
10:45:54,41.44709,2.20841,8,movistar,Movistar,0,STATE_IN_SERVICE,0.5,0.0,42.0,fused,ON_FOOT,82457.0
10:47:25,41.32697,0.63853,8,orange,Orange,0,STATE_IN_SERVICE,0.3,12.0,11.0,gps,UNKNOWN,250560.0
10:50:10,41.74201,2.6239,9,movistar,pepephone,0,STATE_IN_SERVICE,4.9,12.0,8.0,gps,ON_FOOT,170834.0
10:51:04,41.08461,1.0964,6,movistar,Movistar,0,STATE_IN_SERVICE,0.0,7.0,14.0,gps,IN_VEHICLE,430385.0
10:52:39,-8.05096,-34.93839,13,VIVO,VIVO,0,STATE_IN_SERVICE,0.3,3.0,28.0,gps,UNKNOWN,
10:53:06,-8.05065,-34.93841,7,VIVO,VIVO,0,STATE_IN_SERVICE,4.6,2.0,28.0,gps,TILTING,
10:53:14,41.61978,2.67275,15,movistar,Movistar,0,STATE_IN_SERVICE,0.6,0.0,30.0,gps,IN_VEHICLE,81635.0
10:54:25,41.54401,1.89225,1,orange,Orange,0,STATE_IN_SERVICE,0.0,0.0,30.0,fused,UNKNOWN,81477.0
10:55:07,41.74091,2.6233,3,movistar,pepephone,0,STATE_IN_SERVICE,1.6,10.0,5.0,gps,ON_FOOT,170834.0
10:56:12,41.74052,2.62237,3,movistar,pepephone,0,STATE_IN_SERVICE,5.0,11.0,34.0,gps,ON_FOOT,170834.0
10:57:24,41.64843,2.1782,4,movistar,Movistar,0,STATE_IN_SERVICE,1.2,12.0,12.0,gps,STILL,80333.0
10:59:10,41.32263,2.09397,10,vodafone,vodafone ES,0,STATE_IN_SERVICE,1.0,5.0,37.0,gps,ON_FOOT,81691.0
10:59:29,41.64891,2.17714,4,movistar,Movistar,0,STATE_IN_SERVICE,3.0,9.0,9.0,gps,STILL,80333.0
11:00:30,41.64249,2.70406,10,movistar,Movistar,0,STATE_IN_SERVICE,0.0,0.0,24.0,fused,STILL,82613.0
11:01:01,41.64898,2.17681,4,movistar,Movistar,0,STATE_IN_SERVICE,1.1,9.0,14.0,gps,STILL,80333.0
11:02:01,-8.05045,-34.93816,5,VIVO,VIVO,0,STATE_IN_SERVICE,1.8,0.0,11.0,gps,ON_FOOT,
11:02:24,-8.05066,-34.93834,6,VIVO,VIVO,0,STATE_IN_SERVICE,4.8,4.0,22.0,gps,TILTING,
11:03:17,41.3279,0.6413,11,orange,Orange,0,STATE_IN_SERVICE,0.1,4.0,9.0,gps,TILTING,250560.0
11:05:03,41.40347,1.69819,11,orange,JAZZTEL,0,STATE_IN_SERVICE,0.1,4.0,15.0,gps,TILTING,81748.0
11:05:05,41.53057,2.2979,11,movistar,Movistar,0,STATE_IN_SERVICE,0.0,0.0,33.0,gps,TILTING,82969.0
11:05:33,41.64909,2.17659,4,movistar,Movistar,0,STATE_IN_SERVICE,0.3,12.0,12.0,gps,STILL,80333.0
11:05:47,41.64932,2.17618,4,movistar,Movistar,0,STATE_IN_SERVICE,11.2,9.0,8.0,gps,STILL,80333.0
11:06:08,42.10367,3.14746,18,yoigo,YOIGO,0,STATE_IN_SERVICE,0.0,1.0,24.0,gps,ON_FOOT,170622.0
11:07:47,41.32773,0.64157,22,orange,Orange,0,STATE_IN_SERVICE,0.4,2.0,11.0,gps,ON_FOOT,250560.0
11:07:55,41.32785,0.64175,22,orange,Orange,0,STATE_IN_SERVICE,9.2,3.0,10.0,gps,TILTING,250560.0
11:09:10,41.5596,2.23155,11,vodafone,vodafone ES,0,STATE_IN_SERVICE,0.1,7.0,32.0,gps,ON_FOOT,81593.0
11:09:11,41.32116,2.09545,12,vodafone,vodafone ES,0,STATE_IN_SERVICE,1.2,1.0,9.0,gps,ON_FOOT,81691.0
11:10:51,41.50992,2.19608,6,movistar,Movistar,0,STATE_IN_SERVICE,0.5,3.0,18.0,gps,STILL,81056.0
11:11:02,41.78487,1.10335,14,movistar,Movistar,0,STATE_IN_SERVICE,0.0,7.0,10.0,gps,IN_VEHICLE,250030.0
11:11:11,41.32773,0.64133,15,orange,Orange,0,STATE_IN_SERVICE,0.7,3.0,11.0,gps,STILL,250560.0
11:13:46,41.78506,1.10338,11,movistar,Movistar,0,STATE_IN_SERVICE,0.5,9.0,9.0,gps,TILTING,250030.0
11:15:02,41.65029,2.17643,4,movistar,Movistar,0,STATE_IN_SERVICE,0.7,9.0,8.0,gps,STILL,80333.0
11:15:16,41.73912,2.62366,19,movistar,pepephone,0,STATE_IN_SERVICE,0.6,2.0,36.0,gps,ON_FOOT,170834.0
11:16:16,42.10352,3.14725,17,yoigo,YOIGO,0,STATE_IN_SERVICE,0.1,4.0,11.0,gps,STILL,170622.0
11:16:32,41.32711,0.63872,14,orange,Orange,0,STATE_IN_SERVICE,2.6,8.0,6.0,gps,ON_FOOT,250560.0
11:18:15,41.32731,0.63763,0,orange,Orange,0,STATE_IN_SERVICE,3.3,11.0,8.0,gps,TILTING,250560.0
11:18:39,41.78486,1.10329,10,movistar,Movistar,0,STATE_IN_SERVICE,0.3,5.0,9.0,gps,TILTING,250030.0
11:19:13,41.73921,2.62165,20,movistar,pepephone,0,STATE_IN_SERVICE,2.5,4.0,87.0,gps,STILL,170834.0
11:19:16,41.95543,2.64001,6,orange,JAZZTEL,0,STATE_IN_SERVICE,0.0,4.0,13.0,gps,ON_FOOT,170084.0
11:20:17,41.32737,0.63814,0,orange,Orange,0,STATE_IN_SERVICE,1.3,2.0,34.0,gps,TILTING,250560.0
11:20:22,41.32702,0.63775,0,orange,Orange,0,STATE_IN_SERVICE,36.7,7.0,16.0,gps,ON_FOOT,250560.0
11:23:03,41.32719,0.63764,28,orange,Orange,0,STATE_IN_SERVICE,0.5,5.0,12.0,gps,UNKNOWN,250560.0
11:26:47,41.64834,2.17969,4,movistar,Movistar,0,STATE_IN_SERVICE,1.8,7.0,47.0,gps,STILL,80333.0
11:27:24,41.78486,1.10359,11,movistar,Movistar,0,STATE_IN_SERVICE,0.2,2.0,15.0,gps,UNKNOWN,250030.0
11:29:50,41.6488,2.17916,5,movistar,Movistar,0,STATE_IN_SERVICE,1.3,4.0,19.0,gps,UNKNOWN,80333.0
11:30:23,41.203,1.67464,25,vodafone,vodafone ES,0,STATE_IN_SERVICE,0.0,6.0,6.0,gps,UNKNOWN,80749.0
11:31:24,41.78485,1.10329,14,movistar,Movistar,0,STATE_IN_SERVICE,0.4,0.0,36.0,gps,UNKNOWN,250030.0
11:32:20,41.84151,2.24988,14,vodafone,vodafone ES,0,STATE_IN_SERVICE,0.0,1.0,22.0,gps,UNKNOWN,82690.0
11:33:29,41.78458,1.10337,14,movistar,Movistar,0,STATE_IN_SERVICE,0.9,3.0,20.0,gps,UNKNOWN,250030.0
11:34:22,41.62527,2.28647,11,vodafone,vodafone ES,0,STATE_IN_SERVICE,0.0,3.0,19.0,gps,ON_FOOT,80410.0
11:37:59,41.40342,1.69877,26,orange,JAZZTEL,0,STATE_IN_SERVICE,0.0,15.0,9.0,gps,TILTING,81748.0
11:40:43,41.60936,2.34376,19,movistar,Movistar,0,STATE_IN_SERVICE,3.2,4.0,15.0,gps,UNKNOWN,81810.0
11:41:07,41.40276,1.6988,17,orange,JAZZTEL,0,STATE_IN_SERVICE,1.4,0.0,24.0,gps,STILL,81748.0
11:42:43,41.32717,0.63846,13,orange,Orange,0,STATE_IN_SERVICE,0.2,1.0,11.0,gps,TILTING,250560.0
11:42:57,3.75495,8.78084,15,GETESA,GETESA,0,STATE_IN_SERVICE,0.0,0.0,37.0,gps,ON_FOOT,
11:45:22,41.78478,1.10329,14,movistar,Movistar,0,STATE_IN_SERVICE,0.1,3.0,16.0,gps,UNKNOWN,250030.0
11:46:23,40.71752,0.49205,10,orange,Orange,0,STATE_IN_SERVICE,0.0,0.0,18.0,gps,TILTING,431384.0
11:48:04,41.32671,0.63896,0,orange,Orange,0,STATE_IN_SERVICE,0.7,6.0,12.0,gps,IN_VEHICLE,250560.0
11:48:16,41.32642,0.63884,0,orange,Orange,0,STATE_IN_SERVICE,10.4,7.0,11.0,gps,TILTING,250560.0
11:49:09,41.3267,0.63864,0,orange,Orange,0,STATE_IN_SERVICE,2.4,7.0,16.0,gps,ON_FOOT,250560.0
11:56:35,41.65044,2.17955,3,movistar,Movistar,0,STATE_IN_SERVICE,0.0,5.0,16.0,gps,STILL,80333.0
11:57:49,-8.11448,-35.23789,3,VIVO,VIVO,0,STATE_IN_SERVICE,87.1,8.0,9.0,gps,IN_VEHICLE,
12:00:02,41.47982,1.79526,27,movistar,Movistar,0,STATE_IN_SERVICE,0.0,5.0,11.0,gps,UNKNOWN,81192.0
12:00:26,41.29086,1.98293,2,vodafone,vodafone ES,0,STATE_IN_SERVICE,0.0,0.0,36.0,fused,STILL,80569.0
12:01:49,42.24679,2.93793,18,movistar,movistar,0,STATE_IN_SERVICE,0.0,3.0,10.0,gps,TILTING,172214.0
12:02:04,41.5318,2.29789,7,movistar,Movistar,0,STATE_IN_SERVICE,0.1,0.0,8.0,gps,TILTING,82969.0
12:03:21,41.53177,2.29757,14,movistar,Movistar,0,STATE_IN_SERVICE,1.3,0.0,45.0,gps,TILTING,82969.0
12:03:37,41.53174,2.29802,14,movistar,Movistar,0,STATE_IN_SERVICE,8.5,2.0,36.0,gps,IN_VEHICLE,82969.0
12:03:58,41.41694,2.22579,20,yoigo,Yoigo,0,STATE_IN_SERVICE,73.1,8.0,6.0,gps,IN_VEHICLE,81944.0
12:04:52,41.42483,2.21691,13,yoigo,Yoigo,0,STATE_IN_SERVICE,77.4,7.0,6.0,gps,IN_VEHICLE,81944.0
12:05:08,41.53129,2.29795,28,movistar,Movistar,0,STATE_IN_SERVICE,2.0,2.0,41.0,gps,STILL,82969.0
12:09:30,41.65218,2.17715,3,movistar,Movistar,0,STATE_IN_SERVICE,1.3,5.0,12.0,gps,IN_VEHICLE,80333.0
12:09:41,41.47062,2.16556,11,yoigo,Yoigo,0,STATE_IN_SERVICE,110.4,9.0,12.0,gps,IN_VEHICLE,81252.0
12:09:59,7.74282,98.77446,6,DTAC,DTAC,0,STATE_IN_SERVICE,0.6,7.0,15.0,gps,ON_FOOT,
12:10:43,41.48732,2.15956,11,yoigo,Yoigo,0,STATE_IN_SERVICE,111.6,10.0,7.0,gps,IN_VEHICLE,81252.0
12:11:51,41.50233,2.14392,11,yoigo,Yoigo,0,STATE_IN_SERVICE,112.1,13.0,10.0,gps,IN_VEHICLE,81803.0
12:12:05,7.7419,98.77459,6,DTAC,DTAC,0,STATE_IN_SERVICE,2.9,2.0,23.0,gps,ON_FOOT,
12:13:06,-8.16699,-35.45178,13,VIVO,VIVO,0,STATE_IN_SERVICE,88.8,10.0,15.0,gps,IN_VEHICLE,
12:13:29,41.65327,2.17657,7,movistar,Movistar,0,STATE_IN_SERVICE,2.0,9.0,14.0,gps,IN_VEHICLE,80333.0
12:13:40,41.50043,2.11755,11,yoigo,Yoigo,0,STATE_IN_SERVICE,88.9,8.0,7.0,gps,IN_VEHICLE,82665.0
12:14:39,7.74115,98.77405,10,DTAC,DTAC,0,STATE_IN_SERVICE,2.4,0.0,42.0,gps,UNKNOWN,
12:14:42,41.49314,2.10239,11,yoigo,Yoigo,0,STATE_IN_SERVICE,87.5,6.0,8.0,gps,IN_VEHICLE,82665.0
12:16:19,41.47979,1.79555,20,movistar,Movistar,0,STATE_IN_SERVICE,0.1,4.0,34.0,gps,UNKNOWN,81192.0
12:17:03,42.28017,2.97244,12,yoigo,Yoigo,0,STATE_IN_SERVICE,63.6,17.0,16.0,gps,IN_VEHICLE,172142.0
12:17:59,7.74066,98.77378,11,DTAC,DTAC,0,STATE_IN_SERVICE,1.1,6.0,17.0,gps,ON_FOOT,
12:19:02,42.29269,2.94618,12,yoigo,Yoigo,0,STATE_IN_SERVICE,77.9,17.0,9.0,gps,IN_VEHICLE,170932.0
12:19:56,42.3004,2.94023,12,yoigo,Yoigo,0,STATE_IN_SERVICE,66.6,15.0,8.0,gps,IN_VEHICLE,170932.0
12:19:58,41.65231,2.17529,11,movistar,Movistar,0,STATE_IN_SERVICE,1.4,6.0,14.0,gps,STILL,80333.0
12:20:49,42.30882,2.9348,12,yoigo,Yoigo,0,STATE_IN_SERVICE,70.4,6.0,16.0,gps,IN_VEHICLE,171352.0
12:21:28,41.86404,2.65536,13,movistar,Movistar,0,STATE_IN_SERVICE,0.0,1.0,33.0,gps,STILL,171805.0
12:21:37,42.31375,2.93197,12,yoigo,Yoigo,0,STATE_IN_SERVICE,44.7,8.0,6.0,gps,IN_VEHICLE,171352.0
12:22:03,7.73988,98.77314,8,DTAC,DTAC,0,STATE_IN_SERVICE,1.6,1.0,36.0,gps,STILL,
12:22:07,41.65128,2.1748,11,movistar,Movistar,0,STATE_IN_SERVICE,3.4,8.0,12.0,gps,STILL,80333.0
12:22:32,42.32074,2.93146,12,yoigo,Yoigo,0,STATE_IN_SERVICE,50.3,8.0,4.0,gps,IN_VEHICLE,171352.0
12:23:35,42.33149,2.92636,12,yoigo,Yoigo,0,STATE_IN_SERVICE,73.0,7.0,6.0,gps,IN_VEHICLE,171352.0
12:24:10,7.73993,98.77332,5,DTAC,DTAC,0,STATE_IN_SERVICE,0.6,4.0,18.0,gps,UNKNOWN,
12:24:36,42.34217,2.91627,12,yoigo,Yoigo,0,STATE_IN_SERVICE,85.5,9.0,8.0,gps,IN_VEHICLE,172348.0
12:24:58,41.65071,2.17393,7,movistar,Movistar,0,STATE_IN_SERVICE,2.0,8.0,19.0,gps,STILL,80333.0
12:25:29,42.21912,2.54729,14,movistar,Movistar,0,STATE_IN_SERVICE,0.1,0.0,64.0,gps,STILL,171851.0
12:25:30,41.64313,2.30027,7,vodafone,vodafone ES,0,STATE_IN_SERVICE,0.0,2.0,46.0,gps,ON_FOOT,80863.0
12:25:38,42.35299,2.9052,12,yoigo,Yoigo,0,STATE_IN_SERVICE,87.6,11.0,13.0,gps,IN_VEHICLE,172348.0
12:26:37,42.36466,2.89697,12,yoigo,Yoigo,0,STATE_IN_SERVICE,89.3,14.0,7.0,gps,IN_VEHICLE,170427.0
12:27:06,41.47941,1.7954,6,movistar,Movistar,0,STATE_IN_SERVICE,0.2,4.0,26.0,gps,TILTING,81192.0
12:27:27,42.3749,2.89305,12,yoigo,Yoigo,0,STATE_IN_SERVICE,85.1,7.0,9.0,gps,IN_VEHICLE,170427.0
12:27:43,41.64986,2.17293,4,movistar,Movistar,0,STATE_IN_SERVICE,2.8,7.0,20.0,gps,STILL,80333.0
12:28:09,42.24658,2.93806,15,movistar,movistar,0,STATE_IN_SERVICE,0.1,2.0,22.0,gps,ON_FOOT,172214.0
12:28:20,42.38522,2.88637,12,yoigo,Yoigo,0,STATE_IN_SERVICE,86.4,9.0,12.0,gps,IN_VEHICLE,170427.0
12:28:38,42.42604,3.16185,24,orange,JAZZTEL,0,STATE_IN_SERVICE,0.0,3.0,70.0,gps,STILL,171387.0
12:29:24,42.39753,2.88159,12,yoigo,Yoigo,0,STATE_IN_SERVICE,80.0,10.0,6.0,gps,IN_VEHICLE,170865.0
12:30:16,42.40381,2.87902,12,yoigo,Yoigo,0,STATE_IN_SERVICE,50.4,6.0,9.0,gps,IN_VEHICLE,170865.0
12:30:57,41.64968,2.17315,4,movistar,Movistar,0,STATE_IN_SERVICE,0.5,5.0,16.0,gps,STILL,80333.0
12:31:12,42.40984,2.87704,12,yoigo,Yoigo,0,STATE_IN_SERVICE,44.4,12.0,10.0,gps,IN_VEHICLE,170865.0
12:31:42,7.73915,98.77315,4,DTAC,DTAC,0,STATE_IN_SERVICE,0.7,1.0,25.0,gps,UNKNOWN,
12:32:15,42.41367,2.874,12,yoigo,Yoigo,0,STATE_IN_SERVICE,28.2,15.0,5.0,gps,IN_VEHICLE,170865.0
12:33:02,41.3828,2.05355,5,orange,Orange,0,STATE_IN_SERVICE,0.1,3.0,8.0,gps,STILL,82114.0
12:33:05,42.41793,2.87152,12,yoigo,Yoigo,0,STATE_IN_SERVICE,37.1,12.0,12.0,gps,IN_VEHICLE,170865.0
12:33:19,41.47974,1.7951,13,movistar,Movistar,0,STATE_IN_SERVICE,0.4,3.0,27.0,gps,UNKNOWN,81192.0
12:33:55,42.42409,2.86939,21,yoigo,Yoigo,0,STATE_IN_SERVICE,50.8,14.0,6.0,gps,IN_VEHICLE,170865.0
12:34:10,7.73822,98.77298,4,DTAC,DTAC,0,STATE_IN_SERVICE,2.5,5.0,14.0,gps,ON_FOOT,
12:34:49,42.42561,2.86766,22,yoigo,Yoigo,0,STATE_IN_SERVICE,14.8,12.0,8.0,gps,IN_VEHICLE,170865.0
12:35:41,42.42682,2.86788,22,yoigo,Yoigo,0,STATE_IN_SERVICE,9.4,12.0,17.0,gps,IN_VEHICLE,170865.0
12:35:45,7.73802,98.77316,5,DTAC,DTAC,0,STATE_IN_SERVICE,1.1,3.0,20.0,gps,STILL,
12:36:59,41.6432,2.29973,5,vodafone,vodafone ES,0,STATE_IN_SERVICE,0.2,1.0,28.0,gps,STILL,80863.0
12:38:13,7.73796,98.77345,6,DTAC,DTAC,0,STATE_IN_SERVICE,0.8,3.0,17.0,gps,STILL,
12:39:19,41.72446,2.58194,18,movistar,Movistar,0,STATE_IN_SERVICE,122.1,4.0,19.0,gps,IN_VEHICLE,82021.0
12:39:53,41.64336,2.29995,7,vodafone,vodafone ES,0,STATE_IN_SERVICE,0.5,2.0,42.0,gps,TILTING,80863.0
12:40:35,41.32721,0.63838,29,orange,Orange,0,STATE_IN_SERVICE,0.1,1.0,40.0,fused,STILL,250560.0
12:40:48,41.78182,3.03102,9,vodafone,vodafone ES,0,STATE_IN_SERVICE,0.0,3.0,20.0,gps,STILL,171609.0
12:41:36,41.12069,1.17969,5,movistar,Movistar,0,STATE_IN_SERVICE,0.0,1.0,53.0,gps,IN_VEHICLE,439076.0
12:42:31,41.24619,1.79678,5,vodafone,vodafone ES,0,STATE_IN_SERVICE,0.6,0.0,72.0,fused,STILL,82310.0
12:42:47,41.49745,2.35733,26,vodafone,vodafone ES,0,STATE_IN_SERVICE,0.0,2.0,14.0,gps,UNKNOWN,81727.0
12:46:09,7.7379,98.77334,30,DTAC,DTAC,0,STATE_IN_SERVICE,0.0,4.0,5.0,gps,TILTING,
12:48:36,42.42752,2.86826,22,yoigo,Yoigo,0,STATE_IN_SERVICE,0.4,11.0,14.0,gps,IN_VEHICLE,170865.0
12:49:55,41.6487,2.1757,4,movistar,Movistar,0,STATE_IN_SERVICE,0.0,7.0,17.0,gps,STILL,80333.0
12:50:12,41.65214,1.14949,10,Eroski Movil,Eroski Movil,0,STATE_IN_SERVICE,2.9,8.0,18.0,gps,TILTING,252173.0
12:51:07,41.44453,1.73167,10,vodafone,vodafone ES,0,STATE_IN_SERVICE,0.6,2.0,22.0,fused,TILTING,82877.0
12:51:08,42.41528,2.87201,22,yoigo,Yoigo,0,STATE_IN_SERVICE,33.0,10.0,10.0,gps,IN_VEHICLE,170865.0
12:52:01,42.41103,2.87604,18,yoigo,Yoigo,0,STATE_IN_SERVICE,39.2,13.0,12.0,gps,IN_VEHICLE,170865.0
12:53:02,42.40359,2.87898,22,yoigo,Yoigo,0,STATE_IN_SERVICE,50.8,16.0,6.0,gps,IN_VEHICLE,170865.0
12:53:02,41.44715,2.20831,2,movistar,Movistar,0,STATE_IN_SERVICE,0.0,0.0,20.0,fused,STILL,82457.0
12:53:16,41.58634,2.1791,12,movistar,pepephone,0,STATE_IN_SERVICE,0.0,0.0,42.0,fused,TILTING,81568.0
12:53:53,42.39744,2.88161,22,yoigo,Yoigo,0,STATE_IN_SERVICE,50.6,8.0,8.0,gps,IN_VEHICLE,170865.0
12:54:40,42.38684,2.8844,17,yoigo,Yoigo,0,STATE_IN_SERVICE,90.0,7.0,10.0,gps,IN_VEHICLE,170010.0
12:55:10,41.7821,3.03059,29,vodafone,vodafone ES,0,STATE_IN_SERVICE,0.0,1.0,26.0,gps,IN_VEHICLE,171609.0
12:55:33,42.37599,2.89224,17,yoigo,Yoigo,0,STATE_IN_SERVICE,94.6,9.0,8.0,gps,IN_VEHICLE,170427.0
12:55:46,-8.31475,-36.04661,1,VIVO,VIVO,0,STATE_IN_SERVICE,118.6,9.0,7.0,gps,IN_VEHICLE,
12:56:38,42.3633,2.89921,22,yoigo,Yoigo,0,STATE_IN_SERVICE,84.3,8.0,6.0,gps,IN_VEHICLE,170600.0
12:57:16,41.64895,2.17678,4,movistar,Movistar,0,STATE_IN_SERVICE,0.8,2.0,21.0,gps,TILTING,80333.0
12:57:22,-8.32015,-36.07371,9,VIVO,VIVO,0,STATE_IN_SERVICE,127.8,11.0,5.0,gps,IN_VEHICLE,
12:57:29,41.64877,2.17719,5,movistar,Movistar,0,STATE_IN_SERVICE,10.9,4.0,25.0,gps,TILTING,80333.0
12:57:41,42.35099,2.90643,14,yoigo,Yoigo,0,STATE_IN_SERVICE,85.2,15.0,10.0,gps,IN_VEHICLE,172348.0
12:58:43,42.34059,2.91745,19,yoigo,Yoigo,0,STATE_IN_SERVICE,85.3,13.0,7.0,gps,IN_VEHICLE,172348.0
12:58:46,41.64817,2.17784,8,movistar,Movistar,0,STATE_IN_SERVICE,4.0,2.0,14.0,gps,ON_BICYCLE,80333.0
12:59:11,41.84149,2.24966,13,vodafone,vodafone ES,0,STATE_IN_SERVICE,18.2,4.0,8.0,gps,TILTING,82690.0
12:59:44,42.33086,2.92746,22,yoigo,Yoigo,0,STATE_IN_SERVICE,80.3,7.0,8.0,gps,IN_VEHICLE,171352.0
13:00:06,41.64804,2.17813,7,movistar,Movistar,0,STATE_IN_SERVICE,1.3,7.0,10.0,gps,ON_FOOT,80333.0
13:00:47,42.32079,2.93152,22,yoigo,Yoigo,0,STATE_IN_SERVICE,66.7,11.0,18.0,gps,IN_VEHICLE,171352.0
13:01:06,41.53185,2.29809,11,movistar,Movistar,0,STATE_IN_SERVICE,0.0,1.0,15.0,gps,ON_FOOT,82969.0
13:01:50,42.31344,2.93205,22,yoigo,Yoigo,0,STATE_IN_SERVICE,46.7,15.0,14.0,gps,IN_VEHICLE,171352.0
13:02:54,42.30632,2.93731,22,yoigo,Yoigo,0,STATE_IN_SERVICE,50.7,8.0,15.0,gps,IN_VEHICLE,170932.0
13:03:04,41.55773,1.14556,12,Eroski Movil,Eroski Movil,0,STATE_IN_SERVICE,32.8,3.0,15.0,gps,IN_VEHICLE,250740.0
13:03:44,41.64852,2.17816,8,movistar,Movistar,0,STATE_IN_SERVICE,0.9,3.0,9.0,gps,ON_FOOT,80333.0
13:03:53,41.55393,1.15078,12,Eroski Movil,Eroski Movil,0,STATE_IN_SERVICE,44.5,7.0,11.0,gps,IN_VEHICLE,250740.0
13:03:55,42.29564,2.94252,22,yoigo,Yoigo,0,STATE_IN_SERVICE,74.5,13.0,15.0,gps,IN_VEHICLE,170932.0
13:04:37,42.21897,2.54748,2,movistar,Movistar,0,STATE_IN_SERVICE,0.0,2.0,128.0,gps,TILTING,171851.0
13:05:33,41.64905,2.17717,9,movistar,Movistar,0,STATE_IN_SERVICE,3.3,5.0,12.0,gps,TILTING,80333.0
13:06:00,42.28207,2.96897,22,yoigo,Yoigo,0,STATE_IN_SERVICE,81.4,17.0,14.0,gps,IN_VEHICLE,170307.0
13:06:17,42.21865,2.54725,2,movistar,Movistar,0,STATE_IN_SERVICE,1.4,0.0,128.0,gps,STILL,171851.0
13:06:19,41.33367,1.9599,19,orange,Orange,0,STATE_IN_SERVICE,0.9,11.0,10.0,gps,UNKNOWN,80207.0
13:06:27,42.11467,2.40407,6,orange,JAZZTEL,0,STATE_IN_SERVICE,86.4,5.0,9.0,gps,IN_VEHICLE,172076.0
13:07:48,41.6492,2.17682,9,movistar,Movistar,0,STATE_IN_SERVICE,0.9,7.0,16.0,gps,ON_BICYCLE,80333.0
13:08:41,41.64969,2.1761,9,movistar,Movistar,0,STATE_IN_SERVICE,5.5,13.0,8.0,gps,ON_BICYCLE,80333.0
13:09:47,41.64993,2.17607,9,movistar,Movistar,0,STATE_IN_SERVICE,1.5,9.0,7.0,gps,ON_BICYCLE,80333.0
13:10:08,40.71731,0.49224,9,orange,Orange,0,STATE_IN_SERVICE,0.0,2.0,6.0,gps,IN_VEHICLE,431384.0
13:10:35,41.58636,2.17934,9,movistar,pepephone,0,STATE_IN_SERVICE,0.9,0.0,45.0,fused,STILL,81568.0
13:12:54,42.14357,2.45988,12,orange,JAZZTEL,0,STATE_IN_SERVICE,0.0,8.0,21.0,gps,TILTING,171390.0
13:13:07,41.65044,2.17538,9,movistar,Movistar,0,STATE_IN_SERVICE,1.4,10.0,16.0,gps,STILL,80333.0
13:14:14,40.71728,0.49271,11,orange,Orange,0,STATE_IN_SERVICE,0.6,2.0,29.0,gps,ON_FOOT,431384.0
13:15:20,41.68397,2.28723,14,vodafone,vodafone ES,0,STATE_IN_SERVICE,6.7,0.0,37.0,fused,IN_VEHICLE,80885.0
13:15:36,41.38352,2.05307,9,orange,Orange,0,STATE_IN_SERVICE,3.6,4.0,20.0,gps,ON_FOOT,82114.0
13:16:26,41.24098,1.80778,22,movistar,Movistar,0,STATE_IN_SERVICE,0.0,6.0,17.0,gps,STILL,82704.0
13:16:34,41.84119,2.24924,13,vodafone,vodafone ES,0,STATE_IN_SERVICE,0.2,2.0,17.0,gps,TILTING,82690.0
13:16:56,41.37514,2.08645,8,orange,Orange,0,STATE_IN_SERVICE,0.0,2.0,32.0,gps,IN_VEHICLE,80771.0
13:17:56,41.84138,2.24953,9,vodafone,vodafone ES,0,STATE_IN_SERVICE,1.4,0.0,20.0,gps,UNKNOWN,82690.0
13:18:25,40.71722,0.49247,8,orange,Orange,0,STATE_IN_SERVICE,0.3,4.0,20.0,gps,STILL,431384.0
13:19:19,41.84156,2.25009,10,vodafone,vodafone ES,0,STATE_IN_SERVICE,2.2,0.0,29.0,gps,TILTING,82690.0
13:20:05,41.69195,2.49069,7,movistar,Movistar,0,STATE_IN_SERVICE,0.0,2.0,7.0,gps,UNKNOWN,82021.0
13:21:32,41.64249,2.70406,3,movistar,Movistar,0,STATE_IN_SERVICE,0.0,0.0,25.0,fused,STILL,82613.0
13:21:47,42.14387,2.46025,8,orange,JAZZTEL,0,STATE_IN_SERVICE,0.3,3.0,21.0,gps,TILTING,171390.0
13:22:00,42.14359,2.45956,8,orange,JAZZTEL,0,STATE_IN_SERVICE,17.9,4.0,17.0,gps,STILL,171390.0
13:22:17,41.8414,2.2495,11,vodafone,vodafone ES,0,STATE_IN_SERVICE,1.0,2.0,14.0,gps,TILTING,82690.0
13:23:08,42.21988,2.54923,7,movistar,Movistar,0,STATE_IN_SERVICE,0.4,7.0,24.0,gps,UNKNOWN,170464.0
13:23:47,41.64937,2.17805,5,movistar,Movistar,0,STATE_IN_SERVICE,1.4,7.0,8.0,gps,IN_VEHICLE,80333.0
13:25:03,41.37175,2.08387,17,orange,Orange,0,STATE_IN_SERVICE,2.2,4.0,48.0,gps,IN_VEHICLE,80771.0
13:25:51,41.37032,2.08516,17,orange,Orange,0,STATE_IN_SERVICE,14.5,4.0,48.0,gps,IN_VEHICLE,80771.0
13:26:23,41.64886,2.17891,8,movistar,Movistar,0,STATE_IN_SERVICE,2.1,9.0,10.0,gps,IN_VEHICLE,80333.0
13:26:41,41.62633,2.6672,26,vodafone,vodafone ES,0,STATE_IN_SERVICE,1.5,7.0,9.0,gps,UNKNOWN,81635.0
13:26:43,42.10331,3.14754,20,yoigo,YOIGO,0,STATE_IN_SERVICE,0.0,2.0,37.0,gps,TILTING,170622.0
13:32:34,41.38287,2.05299,5,orange,Orange,0,STATE_IN_SERVICE,5.1,0.0,28.0,gps,ON_FOOT,82114.0
13:38:44,42.1435,2.45981,8,orange,JAZZTEL,0,STATE_IN_SERVICE,0.1,5.0,14.0,gps,TILTING,171390.0
13:39:54,41.9552,2.63986,12,orange,JAZZTEL,0,STATE_IN_SERVICE,2.7,5.0,10.0,gps,TILTING,170084.0
13:41:49,41.65114,2.17633,5,movistar,Movistar,0,STATE_IN_SERVICE,0.0,9.0,11.0,gps,STILL,80333.0
13:43:16,-8.66496,-36.35953,13,VIVO,VIVO,0,STATE_IN_SERVICE,90.5,14.0,6.0,gps,IN_VEHICLE,
13:44:13,-8.66737,-36.37009,12,VIVO,VIVO,0,STATE_IN_SERVICE,75.3,3.0,8.0,gps,IN_VEHICLE,
13:44:44,3.75479,8.78097,22,GETESA,GETESA,0,STATE_IN_SERVICE,0.0,5.0,38.0,gps,STILL,
13:45:40,42.00067,2.27729,10,orange,Orange,0,STATE_IN_SERVICE,0.4,0.0,37.0,fused,TILTING,81120.0
13:45:46,3.7549,8.78116,24,GETESA,GETESA,0,STATE_IN_SERVICE,1.4,5.0,19.0,gps,ON_FOOT,
13:48:21,-8.67509,-36.4005,13,VIVO,VIVO,0,STATE_IN_SERVICE,21.8,7.0,4.0,gps,UNKNOWN,
13:50:43,41.69114,2.28184,0,vodafone,vodafone ES,0,STATE_IN_SERVICE,8.3,0.0,42.0,fused,TILTING,80885.0
13:50:50,3.75505,8.78093,24,GETESA,GETESA,0,STATE_IN_SERVICE,0.4,3.0,47.0,gps,STILL,
13:51:19,41.65138,2.17734,8,movistar,Movistar,0,STATE_IN_SERVICE,0.6,12.0,8.0,gps,ON_BICYCLE,80333.0
13:52:56,40.7173,0.49282,8,orange,Orange,0,STATE_IN_SERVICE,0.1,3.0,14.0,gps,TILTING,431384.0
13:56:06,3.75484,8.78097,24,GETESA,GETESA,0,STATE_IN_SERVICE,0.3,5.0,10.0,gps,STILL,
13:59:56,41.65038,2.17876,8,movistar,Movistar,0,STATE_IN_SERVICE,1.1,7.0,19.0,gps,STILL,80333.0
14:02:46,41.65129,2.17787,9,movistar,Movistar,0,STATE_IN_SERVICE,2.6,5.0,9.0,gps,ON_BICYCLE,80333.0
14:04:04,3.75403,8.77605,24,GETESA,GETESA,0,STATE_IN_SERVICE,4.2,5.0,12.0,gps,UNKNOWN,
14:04:50,41.65216,2.17622,9,movistar,Movistar,0,STATE_IN_SERVICE,4.9,7.0,14.0,gps,ON_BICYCLE,80333.0
14:06:25,41.65056,2.17961,5,movistar,Movistar,0,STATE_IN_SERVICE,12.7,7.0,8.0,gps,ON_BICYCLE,80333.0
14:07:30,41.29093,1.98299,4,vodafone,vodafone ES,0,STATE_IN_SERVICE,0.0,0.0,30.0,fused,STILL,80569.0
14:07:54,40.71731,0.49254,8,orange,Orange,0,STATE_IN_SERVICE,0.1,3.0,9.0,gps,STILL,431384.0
14:11:01,41.671,0.53367,12,vodafone,vodafone ES,0,STATE_IN_SERVICE,11.5,2.0,23.0,gps,STILL,250236.0
14:12:20,41.19091,1.61303,3,movistar,Movistar,0,STATE_IN_SERVICE,0.2,5.0,10.0,gps,TILTING,430379.0
14:14:56,40.71737,0.49277,6,orange,Orange,0,STATE_IN_SERVICE,0.2,2.0,17.0,gps,TILTING,431384.0
14:16:41,40.71717,0.49289,6,orange,Orange,0,STATE_IN_SERVICE,0.8,2.0,20.0,gps,ON_FOOT,431384.0
14:16:45,41.65082,2.18008,1,movistar,Movistar,0,STATE_IN_SERVICE,0.3,0.0,32.0,gps,ON_FOOT,80333.0
14:17:16,41.66633,2.7818,5,orange,Orange,0,STATE_IN_SERVICE,0.1,5.0,27.0,gps,UNKNOWN,170237.0
14:18:00,40.71751,0.49246,7,orange,Orange,0,STATE_IN_SERVICE,2.4,4.0,20.0,gps,TILTING,431384.0
14:20:04,41.6209,2.67591,12,movistar,Movistar,0,STATE_IN_SERVICE,0.1,4.0,15.0,gps,STILL,81635.0
14:20:53,40.71724,0.4918,8,orange,Orange,0,STATE_IN_SERVICE,1.3,4.0,17.0,gps,UNKNOWN,431384.0
14:22:23,41.84101,2.24963,8,vodafone,vodafone ES,0,STATE_IN_SERVICE,0.3,2.0,35.0,gps,TILTING,82690.0
14:23:24,41.66584,2.78179,8,orange,Orange,0,STATE_IN_SERVICE,0.5,3.0,29.0,gps,TILTING,170237.0
14:24:37,-8.87652,-36.55368,14,VIVO,VIVO,0,STATE_IN_SERVICE,78.9,6.0,11.0,gps,IN_VEHICLE,
14:25:25,-8.88028,-36.5674,12,VIVO,VIVO,0,STATE_IN_SERVICE,115.5,6.0,16.0,gps,IN_VEHICLE,
14:26:49,41.66609,2.78177,9,orange,Orange,0,STATE_IN_SERVICE,0.5,2.0,21.0,gps,TILTING,170237.0
14:31:05,42.61912,1.12406,17,vodafone,vodafone ES,0,STATE_IN_SERVICE,96.8,5.0,48.0,gps,IN_VEHICLE,250864.0
14:36:33,41.62636,2.42142,9,movistar,Movistar,0,STATE_IN_SERVICE,30.6,7.0,9.0,gps,IN_VEHICLE,80752.0
14:36:37,42.14314,2.45996,7,orange,JAZZTEL,0,STATE_IN_SERVICE,0.1,2.0,36.0,gps,STILL,171390.0
14:37:07,41.44169,1.86867,6,orange,JAZZTEL,0,STATE_IN_SERVICE,0.0,0.0,26.0,gps,TILTING,80919.0
14:40:42,-8.9341,-36.72058,10,VIVO,VIVO,0,STATE_IN_SERVICE,92.0,9.0,6.0,gps,IN_VEHICLE,
14:41:18,41.44153,1.86887,12,orange,JAZZTEL,0,STATE_IN_SERVICE,0.3,3.0,21.0,gps,IN_VEHICLE,80919.0
14:41:36,-8.94061,-36.72081,10,VIVO,VIVO,0,STATE_IN_SERVICE,47.8,6.0,7.0,gps,IN_VEHICLE,
14:42:25,-8.9455,-36.72182,10,VIVO,VIVO,0,STATE_IN_SERVICE,40.6,6.0,13.0,gps,IN_VEHICLE,
14:43:15,-8.95328,-36.72398,9,VIVO,VIVO,0,STATE_IN_SERVICE,64.2,9.0,5.0,gps,IN_VEHICLE,
14:44:08,-8.96047,-36.72649,9,VIVO,VIVO,0,STATE_IN_SERVICE,57.2,10.0,7.0,gps,IN_VEHICLE,
14:45:07,-8.96059,-36.7364,10,VIVO,VIVO,0,STATE_IN_SERVICE,66.5,10.0,17.0,gps,IN_VEHICLE,
14:45:46,41.53387,2.30006,16,movistar,Movistar,0,STATE_IN_SERVICE,0.0,12.0,6.0,gps,UNKNOWN,82969.0
14:45:51,41.53369,2.3001,17,movistar,Movistar,0,STATE_IN_SERVICE,14.5,6.0,7.0,gps,TILTING,82969.0
14:46:03,-8.96046,-36.74597,10,VIVO,VIVO,0,STATE_IN_SERVICE,68.1,6.0,7.0,gps,IN_VEHICLE,
14:46:42,41.58516,2.55244,5,movistar,Movistar,0,STATE_IN_SERVICE,2.7,4.0,19.0,gps,STILL,80060.0
14:47:03,-8.96417,-36.75864,10,VIVO,VIVO,0,STATE_IN_SERVICE,86.6,8.0,7.0,gps,IN_VEHICLE,
14:48:04,-8.95879,-36.76828,10,VIVO,VIVO,0,STATE_IN_SERVICE,71.7,7.0,5.0,gps,IN_VEHICLE,
14:49:03,-8.96018,-36.7794,2,VIVO,VIVO,0,STATE_IN_SERVICE,76.3,9.0,7.0,gps,IN_VEHICLE,
14:49:30,42.14319,2.45993,8,orange,JAZZTEL,0,STATE_IN_SERVICE,0.0,0.0,15.0,gps,ON_FOOT,171390.0
14:50:04,-8.96254,-36.79295,8,VIVO,VIVO,0,STATE_IN_SERVICE,88.0,4.0,13.0,gps,IN_VEHICLE,
14:50:57,41.67136,0.53405,25,vodafone,vodafone ES,0,STATE_IN_SERVICE,0.1,1.0,48.0,gps,STILL,250236.0
14:51:25,41.83064,2.89176,21,vodafone,vodafone ES,0,STATE_IN_SERVICE,62.1,9.0,7.0,gps,IN_VEHICLE,170890.0
14:51:53,-8.97279,-36.81857,10,VIVO,VIVO,0,STATE_IN_SERVICE,113.7,10.0,15.0,gps,IN_VEHICLE,
14:52:41,-8.9807,-36.82928,10,VIVO,VIVO,0,STATE_IN_SERVICE,110.6,8.0,9.0,gps,IN_VEHICLE,
14:54:08,41.84125,2.2495,10,vodafone,vodafone ES,0,STATE_IN_SERVICE,0.1,2.0,15.0,gps,STILL,82690.0
14:58:33,41.78206,3.03121,4,vodafone,vodafone ES,0,STATE_IN_SERVICE,9.4,7.0,17.0,gps,IN_VEHICLE,171609.0
14:59:27,41.78173,3.03022,5,vodafone,vodafone ES,0,STATE_IN_SERVICE,6.0,5.0,20.0,gps,ON_FOOT,171609.0
15:00:29,41.78096,3.02973,5,vodafone,vodafone ES,0,STATE_IN_SERVICE,5.5,3.0,18.0,gps,ON_FOOT,171609.0
15:01:40,41.781,3.02821,5,vodafone,vodafone ES,0,STATE_IN_SERVICE,6.4,4.0,43.0,gps,ON_FOOT,171609.0
15:04:08,41.84163,2.24991,9,vodafone,vodafone ES,0,STATE_IN_SERVICE,0.3,4.0,17.0,gps,STILL,82690.0
15:08:02,40.82928,0.47251,2,orange,Orange,0,STATE_IN_SERVICE,1.0,0.0,24.0,fused,STILL,431331.0
15:08:45,-9.11889,-37.00906,8,VIVO,VIVO,0,STATE_IN_SERVICE,98.9,10.0,7.0,gps,IN_VEHICLE,
15:10:06,-9.1271,-37.02432,8,VIVO,VIVO,0,STATE_IN_SERVICE,84.8,8.0,6.0,gps,IN_VEHICLE,
15:11:05,-9.12724,-37.03834,8,VIVO,VIVO,0,STATE_IN_SERVICE,94.1,4.0,13.0,gps,IN_VEHICLE,
15:12:12,-9.12777,-37.05538,8,VIVO,VIVO,0,STATE_IN_SERVICE,100.6,8.0,11.0,gps,IN_VEHICLE,
15:13:53,-9.12894,-37.08005,10,VIVO,VIVO,0,STATE_IN_SERVICE,92.4,11.0,5.0,gps,IN_VEHICLE,
15:14:01,41.84156,2.25019,8,vodafone,vodafone ES,0,STATE_IN_SERVICE,0.1,2.0,40.0,gps,STILL,82690.0
15:15:49,41.49135,2.12823,9,movistar,pepephone,0,STATE_IN_SERVICE,0.0,0.0,40.0,fused,STILL,82665.0
15:15:57,41.67124,0.53376,29,vodafone,vodafone ES,0,STATE_IN_SERVICE,0.1,0.0,29.0,gps,STILL,250236.0
15:19:49,41.38307,2.05312,2,orange,Orange,0,STATE_IN_SERVICE,0.0,4.0,19.0,gps,ON_FOOT,82114.0
15:23:48,-9.1334,-37.21017,4,VIVO,VIVO,0,STATE_IN_SERVICE,83.7,2.0,6.0,gps,IN_VEHICLE,
15:26:39,-9.13467,-37.24518,4,VIVO,VIVO,0,STATE_IN_SERVICE,83.5,3.0,9.0,gps,IN_VEHICLE,
15:27:31,-9.13506,-37.2559,4,VIVO,VIVO,0,STATE_IN_SERVICE,82.1,5.0,8.0,gps,IN_VEHICLE,
15:30:04,-9.13616,-37.28771,11,VIVO,VIVO,0,STATE_IN_SERVICE,84.1,8.0,12.0,gps,IN_VEHICLE,
15:31:04,-9.13666,-37.29977,11,VIVO,VIVO,0,STATE_IN_SERVICE,79.6,8.0,10.0,gps,IN_VEHICLE,
15:31:26,41.82536,2.89307,4,vodafone,vodafone ES,0,STATE_IN_SERVICE,2.0,7.0,19.0,gps,ON_FOOT,170890.0
15:36:18,41.61122,2.65322,23,vodafone,vodafone ES,0,STATE_IN_SERVICE,0.0,2.0,46.0,gps,TILTING,80351.0
15:36:20,-9.1428,-37.35954,4,VIVO,VIVO,0,STATE_IN_SERVICE,83.9,7.0,17.0,gps,TILTING,
15:37:10,-9.14617,-37.37002,10,VIVO,VIVO,0,STATE_IN_SERVICE,87.2,6.0,7.0,gps,IN_VEHICLE,
15:37:11,42.25587,2.94986,13,movistar,movistar,0,STATE_IN_SERVICE,0.3,1.0,46.0,gps,TILTING,172214.0
15:38:02,41.40162,2.00691,23,movistar,movistar,0,STATE_IN_SERVICE,0.0,3.0,12.0,gps,STILL,82634.0
15:38:04,-9.14983,-37.381,13,VIVO,VIVO,0,STATE_IN_SERVICE,84.8,8.0,11.0,gps,IN_VEHICLE,
15:38:25,41.62645,2.23466,8,movistar,Movistar,0,STATE_IN_SERVICE,0.0,1.0,36.0,gps,UNKNOWN,81075.0
15:39:04,-9.15429,-37.39448,11,VIVO,VIVO,0,STATE_IN_SERVICE,93.7,6.0,13.0,gps,IN_VEHICLE,
15:39:32,41.62619,2.23463,8,movistar,Movistar,0,STATE_IN_SERVICE,1.6,1.0,22.0,gps,TILTING,81075.0
15:39:49,41.5852,2.55307,4,movistar,Movistar,0,STATE_IN_SERVICE,0.1,2.0,42.0,gps,STILL,80060.0
15:40:06,-9.1582,-37.40664,13,VIVO,VIVO,0,STATE_IN_SERVICE,81.5,8.0,8.0,gps,IN_VEHICLE,
15:40:58,41.67177,0.53358,29,vodafone,vodafone ES,0,STATE_IN_SERVICE,0.1,2.0,36.0,gps,STILL,250236.0
15:41:05,-9.16214,-37.41854,13,VIVO,VIVO,0,STATE_IN_SERVICE,84.1,7.0,5.0,gps,IN_VEHICLE,
15:41:19,41.85093,0.96064,8,orange,Orange,0,STATE_IN_SERVICE,0.4,8.0,14.0,gps,STILL,250791.0
15:41:35,40.71473,0.49731,13,orange,Orange,0,STATE_IN_SERVICE,0.0,4.0,28.0,gps,TILTING,431384.0
15:42:13,-9.16674,-37.43273,13,VIVO,VIVO,0,STATE_IN_SERVICE,86.9,8.0,5.0,gps,IN_VEHICLE,
15:42:49,41.62605,2.23501,2,movistar,Movistar,0,STATE_IN_SERVICE,0.6,3.0,43.0,gps,STILL,81075.0
15:43:56,-9.1731,-37.45194,13,VIVO,VIVO,0,STATE_IN_SERVICE,83.7,6.0,12.0,gps,IN_VEHICLE,
15:44:19,41.64249,2.70405,11,movistar,Movistar,0,STATE_IN_SERVICE,0.0,0.0,25.0,fused,STILL,82613.0
15:44:28,41.47973,1.91839,14,movistar,Movistar,0,STATE_IN_SERVICE,1.0,0.0,40.0,fused,STILL,81141.0
15:45:15,3.75372,8.77596,23,GETESA,GETESA,0,STATE_IN_SERVICE,0.0,4.0,17.0,gps,ON_FOOT,
15:45:26,41.62628,2.23464,3,movistar,Movistar,0,STATE_IN_SERVICE,0.9,2.0,29.0,gps,UNKNOWN,81075.0
15:45:31,-9.17957,-37.47197,0,VIVO,VIVO,0,STATE_IN_SERVICE,89.9,6.0,6.0,gps,IN_VEHICLE,
15:46:18,-9.18265,-37.48122,7,VIVO,VIVO,0,STATE_IN_SERVICE,81.1,10.0,4.0,gps,IN_VEHICLE,
15:48:03,-9.18903,-37.50121,5,VIVO,VIVO,0,STATE_IN_SERVICE,79.7,7.0,5.0,gps,IN_VEHICLE,
15:48:57,41.2909,1.98309,29,vodafone,vodafone ES,0,STATE_IN_SERVICE,0.0,0.0,37.0,fused,STILL,80569.0
15:50:28,-9.19605,-37.52255,15,VIVO,VIVO,0,STATE_IN_SERVICE,55.0,7.0,6.0,gps,IN_VEHICLE,
15:50:49,41.62616,2.66736,26,vodafone,vodafone ES,0,STATE_IN_SERVICE,6.3,1.0,19.0,gps,UNKNOWN,81635.0
15:51:05,41.24673,1.79697,3,vodafone,vodafone ES,0,STATE_IN_SERVICE,0.0,0.0,39.0,fused,STILL,82310.0
15:51:09,41.67082,0.53391,30,vodafone,vodafone ES,0,STATE_IN_SERVICE,0.6,0.0,45.0,gps,STILL,250236.0
15:52:09,41.64345,2.30004,5,vodafone,vodafone ES,0,STATE_IN_SERVICE,0.0,2.0,14.0,gps,UNKNOWN,80863.0
15:52:18,-9.20298,-37.54347,6,VIVO,VIVO,0,STATE_IN_SERVICE,86.2,1.0,26.0,gps,IN_VEHICLE,
15:53:23,-9.20728,-37.55765,3,VIVO,VIVO,0,STATE_IN_SERVICE,90.3,2.0,14.0,gps,IN_VEHICLE,
15:54:01,41.64316,2.29963,5,vodafone,vodafone ES,0,STATE_IN_SERVICE,1.5,0.0,44.0,gps,TILTING,80863.0
15:54:12,41.6433,2.29997,5,vodafone,vodafone ES,0,STATE_IN_SERVICE,10.5,1.0,29.0,gps,UNKNOWN,80863.0
15:54:21,-9.21076,-37.568,3,VIVO,VIVO,0,STATE_IN_SERVICE,75.0,2.0,10.0,gps,IN_VEHICLE,
15:55:29,-9.21518,-37.58152,3,VIVO,VIVO,0,STATE_IN_SERVICE,82.8,5.0,7.0,gps,IN_VEHICLE,
15:56:19,-9.21845,-37.59126,3,VIVO,VIVO,0,STATE_IN_SERVICE,80.7,5.0,10.0,gps,IN_VEHICLE,
15:56:21,3.75496,8.78107,17,GETESA,GETESA,0,STATE_IN_SERVICE,3.2,0.0,11.0,gps,ON_FOOT,
15:57:14,-9.22186,-37.60242,3,VIVO,VIVO,0,STATE_IN_SERVICE,84.6,3.0,25.0,gps,IN_VEHICLE,
15:58:06,-9.22553,-37.61292,3,VIVO,VIVO,0,STATE_IN_SERVICE,84.7,4.0,8.0,gps,IN_VEHICLE,
16:00:06,-9.23294,-37.63527,3,VIVO,VIVO,0,STATE_IN_SERVICE,74.4,3.0,9.0,gps,IN_VEHICLE,
16:00:47,41.48522,2.30455,9,movistar,Movistar,0,STATE_IN_SERVICE,0.0,4.0,15.0,gps,STILL,80039.0
16:01:05,-9.23639,-37.646,3,VIVO,VIVO,0,STATE_IN_SERVICE,75.6,1.0,17.0,gps,IN_VEHICLE,
16:01:56,-9.2396,-37.65548,3,VIVO,VIVO,0,STATE_IN_SERVICE,77.7,2.0,4.0,gps,IN_VEHICLE,
16:05:33,41.66603,2.7817,8,orange,Orange,0,STATE_IN_SERVICE,0.0,3.0,39.0,gps,IN_VEHICLE,170237.0
16:10:15,-9.26904,-37.74453,8,VIVO,VIVO,0,STATE_IN_SERVICE,65.1,3.0,13.0,gps,IN_VEHICLE,
16:11:28,42.25628,2.94964,8,movistar,movistar,0,STATE_IN_SERVICE,0.1,2.0,16.0,gps,TILTING,172214.0
16:11:48,41.64354,2.30011,5,vodafone,vodafone ES,0,STATE_IN_SERVICE,0.1,1.0,38.0,gps,TILTING,80863.0
16:12:04,-9.27569,-37.76464,3,VIVO,VIVO,0,STATE_IN_SERVICE,76.4,6.0,7.0,gps,IN_VEHICLE,
16:12:18,41.53037,2.29873,6,movistar,Movistar,0,STATE_IN_SERVICE,0.0,8.0,7.0,gps,IN_VEHICLE,82969.0
16:13:04,-9.27924,-37.77475,3,VIVO,VIVO,0,STATE_IN_SERVICE,70.7,8.0,12.0,gps,IN_VEHICLE,
16:14:03,-9.28271,-37.78528,3,VIVO,VIVO,0,STATE_IN_SERVICE,73.7,7.0,6.0,gps,IN_VEHICLE,
16:15:04,-9.28612,-37.79677,3,VIVO,VIVO,0,STATE_IN_SERVICE,77.8,6.0,12.0,gps,IN_VEHICLE,
16:16:02,-9.28844,-37.80869,3,VIVO,VIVO,0,STATE_IN_SERVICE,83.6,5.0,10.0,gps,IN_VEHICLE,
16:16:48,-9.29031,-37.81723,3,VIVO,VIVO,0,STATE_IN_SERVICE,74.2,2.0,9.0,gps,IN_VEHICLE,
16:18:13,41.29424,1.77767,3,movistar,movistar,0,STATE_IN_SERVICE,0.0,7.0,19.0,gps,TILTING,81483.0
16:18:28,41.29406,1.77757,3,movistar,movistar,0,STATE_IN_SERVICE,5.3,7.0,9.0,gps,TILTING,81483.0
16:18:29,-9.2949,-37.84073,8,VIVO,VIVO,0,STATE_IN_SERVICE,90.6,4.0,8.0,gps,IN_VEHICLE,
16:18:36,3.75514,8.78099,18,GETESA,GETESA,0,STATE_IN_SERVICE,0.1,3.0,31.0,gps,ON_FOOT,
16:19:18,-9.29693,-37.85067,8,VIVO,VIVO,0,STATE_IN_SERVICE,82.8,6.0,8.0,gps,IN_VEHICLE,
16:20:27,42.25605,2.94979,7,movistar,movistar,0,STATE_IN_SERVICE,0.2,1.0,24.0,gps,IN_VEHICLE,172214.0
16:20:40,41.62645,2.66757,23,vodafone,vodafone ES,0,STATE_IN_SERVICE,0.1,0.0,34.0,gps,ON_BICYCLE,81635.0
16:21:01,41.62617,2.2449,1,movistar,Movistar,0,STATE_IN_SERVICE,1.4,1.0,23.0,gps,IN_VEHICLE,81075.0
16:21:08,-9.30153,-37.87384,8,VIVO,VIVO,0,STATE_IN_SERVICE,85.1,3.0,34.0,gps,IN_VEHICLE,
16:22:04,41.73946,2.62314,11,movistar,pepephone,0,STATE_IN_SERVICE,0.0,4.0,33.0,gps,UNKNOWN,170834.0
16:22:07,-9.30386,-37.88463,8,VIVO,VIVO,0,STATE_IN_SERVICE,74.0,5.0,21.0,gps,IN_VEHICLE,
16:22:13,40.54717,0.52107,23,vodafone,vodafone ES,0,STATE_IN_SERVICE,0.0,2.0,20.0,gps,STILL,430043.0
16:22:16,3.75485,8.78084,20,GETESA,GETESA,0,STATE_IN_SERVICE,0.6,5.0,38.0,gps,ON_FOOT,
16:23:08,-9.3062,-37.89729,8,VIVO,VIVO,0,STATE_IN_SERVICE,83.5,3.0,22.0,gps,IN_VEHICLE,
16:24:16,41.62628,2.6672,20,vodafone,vodafone ES,0,STATE_IN_SERVICE,0.6,4.0,14.0,gps,ON_FOOT,81635.0
16:24:31,-9.30968,-37.91409,8,VIVO,VIVO,0,STATE_IN_SERVICE,81.8,4.0,16.0,gps,IN_VEHICLE,
16:25:24,42.25612,2.94947,10,movistar,movistar,0,STATE_IN_SERVICE,0.3,1.0,48.0,gps,IN_VEHICLE,172214.0
16:25:29,-9.31184,-37.92495,8,VIVO,VIVO,0,STATE_IN_SERVICE,75.6,3.0,8.0,gps,IN_VEHICLE,
16:26:08,42.00849,2.03059,10,vodafone,vodafone ES,0,STATE_IN_SERVICE,41.7,3.0,39.0,fused,TILTING,81712.0
16:26:20,-9.31394,-37.93491,5,VIVO,VIVO,0,STATE_IN_SERVICE,78.9,3.0,9.0,gps,IN_VEHICLE,
16:26:27,41.53062,2.29891,6,movistar,Movistar,0,STATE_IN_SERVICE,0.1,5.0,13.0,gps,STILL,82969.0
16:27:09,41.5753,2.25021,2,movistar,Movistar,0,STATE_IN_SERVICE,55.4,1.0,48.0,gps,IN_VEHICLE,81593.0
16:27:14,41.7392,2.62288,12,movistar,pepephone,0,STATE_IN_SERVICE,0.4,0.0,43.0,gps,TILTING,170834.0
16:30:05,41.73904,2.62306,9,movistar,pepephone,0,STATE_IN_SERVICE,0.5,2.0,11.0,gps,TILTING,170834.0
16:30:52,3.75319,8.77834,24,GETESA,GETESA,0,STATE_IN_SERVICE,5.7,5.0,20.0,gps,UNKNOWN,
16:30:57,41.70645,2.40213,5,movistar,Movistar,0,STATE_IN_SERVICE,2.3,6.0,8.0,gps,TILTING,82346.0
16:31:54,41.60563,0.87958,11,movistar,Movistar,0,STATE_IN_SERVICE,1.1,3.0,15.0,gps,TILTING,251351.0
16:32:02,3.75318,8.77806,24,GETESA,GETESA,0,STATE_IN_SERVICE,1.6,4.0,27.0,gps,UNKNOWN,
16:33:50,41.54525,1.89629,10,orange,Orange,0,STATE_IN_SERVICE,0.0,0.0,22.0,fused,STILL,81477.0
16:35:50,41.63672,2.71781,21,vodafone,vodafone ES,0,STATE_IN_SERVICE,5.1,2.0,24.0,gps,ON_BICYCLE,82613.0
16:35:57,3.75301,8.77821,22,GETESA,GETESA,0,STATE_IN_SERVICE,0.4,2.0,22.0,gps,STILL,
16:37:17,42.25604,2.94969,7,movistar,movistar,0,STATE_IN_SERVICE,0.1,2.0,8.0,gps,TILTING,172214.0
16:37:27,-9.35605,-38.05779,5,VIVO,VIVO,0,STATE_IN_SERVICE,76.5,2.0,14.0,gps,IN_VEHICLE,
16:37:58,3.75313,8.77837,19,GETESA,GETESA,0,STATE_IN_SERVICE,0.6,3.0,17.0,gps,UNKNOWN,
16:38:22,3.75301,8.7771,20,GETESA,GETESA,0,STATE_IN_SERVICE,20.6,1.0,4.0,gps,IN_VEHICLE,
16:39:04,42.60002,1.13021,13,vodafone,vodafone ES,0,STATE_IN_SERVICE,42.4,3.0,48.0,gps,IN_VEHICLE,259031.0
16:40:19,3.74812,8.77477,23,GETESA,GETESA,0,STATE_IN_SERVICE,28.3,5.0,8.0,gps,IN_VEHICLE,
16:40:38,41.7062,2.40231,5,movistar,Movistar,0,STATE_IN_SERVICE,0.2,6.0,18.0,gps,TILTING,82346.0
16:41:14,-9.37047,-38.09976,8,VIVO,VIVO,0,STATE_IN_SERVICE,80.7,3.0,13.0,gps,IN_VEHICLE,
16:42:06,-9.37361,-38.10905,8,VIVO,VIVO,0,STATE_IN_SERVICE,75.7,3.0,14.0,gps,IN_VEHICLE,
16:43:13,-9.37803,-38.12153,8,VIVO,VIVO,0,STATE_IN_SERVICE,78.2,1.0,21.0,gps,IN_VEHICLE,
16:44:05,-9.38098,-38.13052,5,VIVO,VIVO,0,STATE_IN_SERVICE,72.0,1.0,17.0,gps,IN_VEHICLE,
16:45:05,-9.38444,-38.14089,3,VIVO,VIVO,0,STATE_IN_SERVICE,72.1,1.0,16.0,gps,IN_VEHICLE,
16:45:44,3.73218,8.77344,24,GETESA,GETESA,0,STATE_IN_SERVICE,51.2,2.0,27.0,gps,IN_VEHICLE,
16:46:38,3.72949,8.78263,24,GETESA,GETESA,0,STATE_IN_SERVICE,70.9,2.0,35.0,gps,IN_VEHICLE,
16:47:31,3.73043,8.79119,24,GETESA,GETESA,0,STATE_IN_SERVICE,65.0,1.0,30.0,gps,IN_VEHICLE,
16:48:35,41.37032,2.01862,29,movistar,Movistar,0,STATE_IN_SERVICE,0.0,0.0,36.0,gps,STILL,82444.0
16:48:44,3.7384,8.79533,24,GETESA,GETESA,0,STATE_IN_SERVICE,49.0,1.0,15.0,gps,IN_VEHICLE,
16:48:56,41.48494,2.3053,12,movistar,Movistar,0,STATE_IN_SERVICE,0.1,4.0,17.0,gps,UNKNOWN,80039.0
16:49:14,42.03993,3.1238,1,orange,RACC,0,STATE_IN_SERVICE,0.0,4.0,18.0,gps,ON_FOOT,171997.0
16:49:50,42.03991,3.12324,1,orange,RACC,0,STATE_IN_SERVICE,4.6,3.0,8.0,gps,TILTING,171997.0
16:51:22,41.70656,2.40214,6,movistar,Movistar,0,STATE_IN_SERVICE,0.2,2.0,10.0,gps,TILTING,82346.0
16:51:23,42.04,3.12346,1,orange,RACC,0,STATE_IN_SERVICE,0.8,1.0,8.0,gps,UNKNOWN,171997.0
16:53:36,42.03986,3.12326,1,orange,RACC,0,STATE_IN_SERVICE,0.6,2.0,23.0,gps,ON_FOOT,171997.0
16:55:20,42.25622,2.94939,9,movistar,movistar,0,STATE_IN_SERVICE,0.1,2.0,13.0,gps,STILL,172214.0
16:55:45,42.03996,3.12362,1,orange,RACC,0,STATE_IN_SERVICE,0.9,4.0,4.0,gps,UNKNOWN,171997.0
16:56:20,42.03971,3.12308,1,orange,RACC,0,STATE_IN_SERVICE,5.4,4.0,23.0,gps,TILTING,171997.0
16:56:36,41.24128,1.80776,4,movistar,Movistar,0,STATE_IN_SERVICE,14.6,2.0,41.0,gps,IN_VEHICLE,82704.0
16:59:39,41.78159,3.03021,13,vodafone,vodafone ES,0,STATE_IN_SERVICE,0.0,5.0,20.0,gps,ON_FOOT,171609.0
16:59:54,41.8256,1.89553,10,yoigo,YOIGO,0,STATE_IN_SERVICE,1.3,0.0,96.0,gps,STILL,81918.0
17:00:07,41.78181,3.03038,27,vodafone,vodafone ES,0,STATE_IN_SERVICE,3.7,3.0,40.0,gps,ON_FOOT,171609.0
17:02:24,41.36936,2.02229,14,movistar,Movistar,0,STATE_IN_SERVICE,1.4,6.0,25.0,gps,ON_FOOT,82444.0
17:02:31,41.29089,1.98309,4,vodafone,vodafone ES,0,STATE_IN_SERVICE,0.0,0.0,55.0,fused,STILL,80569.0
17:02:45,42.03947,3.12271,8,orange,RACC,0,STATE_IN_SERVICE,0.4,0.0,15.0,gps,UNKNOWN,171997.0
17:03:17,41.9552,2.63973,9,orange,JAZZTEL,0,STATE_IN_SERVICE,0.0,4.0,24.0,gps,UNKNOWN,170084.0
17:05:05,3.74375,8.80615,17,GETESA,GETESA,0,STATE_IN_SERVICE,21.4,3.0,16.0,gps,IN_VEHICLE,
17:05:55,3.74088,8.80492,17,GETESA,GETESA,0,STATE_IN_SERVICE,24.9,4.0,8.0,gps,IN_VEHICLE,
17:06:43,3.74209,8.80336,25,GETESA,GETESA,0,STATE_IN_SERVICE,16.4,2.0,9.0,gps,IN_VEHICLE,
17:07:21,42.17921,2.19702,2,movistar,Movistar,0,STATE_IN_SERVICE,60.3,3.0,64.0,gps,IN_VEHICLE,171479.0
17:08:21,3.73858,8.7968,23,GETESA,GETESA,0,STATE_IN_SERVICE,53.0,7.0,12.0,gps,IN_VEHICLE,
17:08:28,41.47335,1.5294,8,vodafone,vodafone ES,0,STATE_IN_SERVICE,0.0,0.0,24.0,fused,TILTING,81043.0
17:09:10,3.73873,8.79358,23,GETESA,GETESA,0,STATE_IN_SERVICE,26.3,5.0,11.0,gps,IN_VEHICLE,
17:09:44,42.04018,3.12359,15,orange,RACC,0,STATE_IN_SERVICE,0.9,0.0,15.0,gps,STILL,171997.0
17:10:45,41.62611,2.66708,22,vodafone,vodafone ES,0,STATE_IN_SERVICE,13.2,8.0,7.0,gps,IN_VEHICLE,81635.0
17:11:20,41.95556,2.6402,7,orange,JAZZTEL,0,STATE_IN_SERVICE,0.0,5.0,14.0,gps,UNKNOWN,170084.0
17:11:24,42.03983,3.12314,15,orange,RACC,0,STATE_IN_SERVICE,1.9,2.0,28.0,gps,TILTING,171997.0
17:11:37,3.73064,8.77978,23,GETESA,GETESA,0,STATE_IN_SERVICE,62.2,9.0,11.0,gps,IN_VEHICLE,
17:12:26,3.73228,8.7722,23,GETESA,GETESA,0,STATE_IN_SERVICE,63.2,3.0,15.0,gps,IN_VEHICLE,
17:14:02,42.03993,3.12352,15,orange,RACC,0,STATE_IN_SERVICE,0.7,4.0,11.0,gps,STILL,171997.0
17:15:52,3.73955,8.76538,30,GETESA,GETESA,0,STATE_IN_SERVICE,13.7,5.0,10.0,gps,IN_VEHICLE,
17:16:10,41.40355,1.69854,10,orange,JAZZTEL,0,STATE_IN_SERVICE,0.0,3.0,13.0,gps,STILL,81748.0
17:16:41,3.7423,8.76555,11,GETESA,GETESA,0,STATE_IN_SERVICE,22.0,7.0,10.0,gps,TILTING,
17:17:31,3.74278,8.766,10,GETESA,GETESA,0,STATE_IN_SERVICE,5.4,12.0,11.0,gps,TILTING,
17:18:39,3.74258,8.76615,10,GETESA,GETESA,0,STATE_IN_SERVICE,1.5,0.0,31.0,gps,TILTING,
17:19:01,-9.4007,-38.22159,13,VIVO,VIVO,0,STATE_IN_SERVICE,11.0,4.0,11.0,gps,IN_VEHICLE,
17:20:04,41.84148,2.25003,11,vodafone,vodafone ES,0,STATE_IN_SERVICE,0.0,1.0,22.0,gps,TILTING,82690.0
17:20:19,41.7386,2.622,29,movistar,pepephone,0,STATE_IN_SERVICE,0.0,8.0,27.0,gps,ON_FOOT,170834.0
17:27:48,41.84135,2.24955,8,vodafone,vodafone ES,0,STATE_IN_SERVICE,0.3,0.0,35.0,gps,STILL,82690.0
17:31:32,41.24052,1.57592,12,vodafone,vodafone ES,0,STATE_IN_SERVICE,32.6,0.0,24.0,fused,ON_FOOT,430249.0
17:32:38,41.64249,2.70406,8,movistar,Movistar,0,STATE_IN_SERVICE,0.0,0.0,23.0,fused,STILL,82613.0
17:35:06,41.57868,1.64452,7,orange,Orange,0,STATE_IN_SERVICE,25.6,1.0,146.0,gps,STILL,81430.0
17:36:16,41.82521,1.89596,3,yoigo,YOIGO,0,STATE_IN_SERVICE,0.1,4.0,48.0,gps,ON_FOOT,81918.0
17:37:06,3.74238,8.76615,19,GETESA,GETESA,0,STATE_IN_SERVICE,0.1,1.0,28.0,gps,STILL,
17:37:31,3.74257,8.76613,19,GETESA,GETESA,0,STATE_IN_SERVICE,3.1,4.0,35.0,gps,STILL,
17:37:49,42.10226,1.85791,31,orange,Orange,0,STATE_IN_SERVICE,0.0,4.0,13.0,gps,ON_FOOT,80229.0
17:39:13,3.74276,8.76615,17,GETESA,GETESA,0,STATE_IN_SERVICE,0.7,8.0,15.0,gps,STILL,
17:39:47,40.71487,0.4973,10,orange,Orange,0,STATE_IN_SERVICE,4.2,2.0,20.0,gps,TILTING,431384.0
17:40:03,41.22458,1.53507,6,orange,Orange,0,STATE_IN_SERVICE,1.4,3.0,26.0,gps,ON_FOOT,431634.0
17:40:09,41.57849,1.63957,12,orange,Orange,0,STATE_IN_SERVICE,4.9,3.0,11.0,gps,STILL,83020.0
17:40:54,41.47016,1.53263,13,vodafone,vodafone ES,0,STATE_IN_SERVICE,0.8,0.0,37.0,fused,TILTING,81043.0
17:40:57,41.22482,1.53433,6,orange,Orange,0,STATE_IN_SERVICE,4.5,1.0,44.0,gps,ON_FOOT,431634.0
17:40:58,41.11918,1.18314,8,movistar,Movistar,0,STATE_IN_SERVICE,0.0,4.0,18.0,gps,ON_FOOT,439076.0
17:42:27,42.25634,2.94957,8,movistar,movistar,0,STATE_IN_SERVICE,0.0,2.0,33.0,gps,TILTING,172214.0
17:44:05,42.2318,2.28513,9,movistar,Movistar,0,STATE_IN_SERVICE,0.0,0.0,64.0,gps,UNKNOWN,171674.0
17:44:24,41.88284,2.29911,6,movistar,Movistar,0,STATE_IN_SERVICE,2.6,1.0,3.0,gps,UNKNOWN,82785.0
17:44:45,41.84141,2.2495,6,vodafone,vodafone ES,0,STATE_IN_SERVICE,0.0,2.0,17.0,gps,STILL,82690.0
17:45:05,41.57865,1.63533,25,orange,Orange,0,STATE_IN_SERVICE,4.3,2.0,103.0,gps,STILL,81022.0
17:46:15,41.30718,1.722,10,movistar,Movistar,0,STATE_IN_SERVICE,0.0,5.0,5.0,gps,IN_VEHICLE,81458.0
17:46:43,42.23216,2.28539,9,movistar,Movistar,0,STATE_IN_SERVICE,1.0,3.0,64.0,gps,STILL,171674.0
17:47:05,41.24297,1.76052,10,movistar,Movistar,0,STATE_IN_SERVICE,0.0,2.0,12.0,gps,IN_VEHICLE,82310.0
17:47:11,40.54722,0.52206,27,vodafone,vodafone ES,0,STATE_IN_SERVICE,0.0,0.0,34.0,gps,STILL,430043.0
17:50:10,41.57823,1.62965,30,orange,Orange,0,STATE_IN_SERVICE,5.6,1.0,11.0,gps,IN_VEHICLE,81022.0
17:51:36,41.44722,2.20832,13,movistar,Movistar,0,STATE_IN_SERVICE,0.0,0.0,36.0,fused,STILL,82457.0
17:54:18,41.24016,1.57603,8,vodafone,vodafone ES,0,STATE_IN_SERVICE,0.1,0.0,28.0,fused,TILTING,430249.0
17:54:32,41.47015,1.53261,4,vodafone,vodafone ES,0,STATE_IN_SERVICE,0.0,0.0,30.0,fused,IN_VEHICLE,81043.0
17:54:56,41.88319,2.29864,7,movistar,Movistar,0,STATE_IN_SERVICE,0.3,2.0,48.0,gps,STILL,82785.0
17:55:42,41.58328,1.62438,20,orange,Orange,0,STATE_IN_SERVICE,7.8,1.0,63.0,gps,IN_VEHICLE,81022.0
17:58:33,42.10037,1.84944,16,orange,Orange,0,STATE_IN_SERVICE,0.0,0.0,36.0,fused,ON_FOOT,80229.0
17:59:21,41.74851,2.56109,9,orange,simyo,0,STATE_IN_SERVICE,0.0,8.0,7.0,gps,ON_FOOT,170274.0
18:00:19,41.62075,2.43063,0,movistar,Movistar,0,STATE_IN_SERVICE,0.3,6.0,23.0,gps,UNKNOWN,80752.0
18:00:45,41.58442,1.62524,11,orange,Orange,0,STATE_IN_SERVICE,1.7,2.0,67.0,gps,IN_VEHICLE,81022.0
18:01:19,42.17694,2.4816,18,movistar,Movistar,0,STATE_IN_SERVICE,0.6,3.0,26.0,gps,ON_FOOT,171143.0
18:01:51,40.71464,0.49715,12,orange,Orange,0,STATE_IN_SERVICE,0.1,2.0,22.0,gps,TILTING,431384.0
18:03:44,41.82629,2.89391,4,vodafone,vodafone ES,0,STATE_IN_SERVICE,0.0,8.0,14.0,gps,ON_FOOT,170890.0
18:03:47,3.74293,8.76625,13,GETESA,GETESA,0,STATE_IN_SERVICE,0.1,5.0,22.0,gps,STILL,
18:04:19,41.40351,1.69829,29,orange,JAZZTEL,0,STATE_IN_SERVICE,0.0,3.0,22.0,gps,IN_VEHICLE,81748.0
18:04:48,41.29088,1.9831,2,vodafone,vodafone ES,0,STATE_IN_SERVICE,0.0,0.0,55.0,fused,STILL,80569.0
18:05:09,41.5827,1.61632,11,orange,Orange,0,STATE_IN_SERVICE,10.4,2.0,123.0,gps,IN_VEHICLE,81022.0
18:05:12,41.62082,2.43014,0,movistar,Movistar,0,STATE_IN_SERVICE,0.5,0.0,26.0,gps,STILL,80752.0
18:06:00,41.62069,2.4307,0,movistar,Movistar,0,STATE_IN_SERVICE,3.7,7.0,12.0,gps,IN_VEHICLE,80752.0
18:06:21,41.52749,1.95736,6,orange,RACC,0,STATE_IN_SERVICE,0.4,0.0,30.0,fused,STILL,82900.0
18:06:22,41.95477,2.63919,1,vodafone,vodafone ES,0,STATE_IN_SERVICE,3.4,0.0,27.0,fused,ON_FOOT,170084.0
18:06:49,42.24784,2.93941,12,movistar,movistar,0,STATE_IN_SERVICE,0.4,2.0,43.0,gps,TILTING,172214.0
18:08:28,-9.40538,-38.21079,5,VIVO,VIVO,0,STATE_IN_SERVICE,0.2,6.0,18.0,gps,TILTING,
18:10:01,3.74274,8.7662,12,GETESA,GETESA,0,STATE_IN_SERVICE,0.2,6.0,18.0,gps,STILL,
18:11:31,41.6205,2.43072,0,movistar,Movistar,0,STATE_IN_SERVICE,0.2,2.0,7.0,gps,STILL,80752.0
18:14:18,-9.40543,-38.21108,4,VIVO,VIVO,0,STATE_IN_SERVICE,0.3,8.0,5.0,gps,IN_VEHICLE,
18:15:09,41.878,2.2876,12,movistar,Movistar,0,STATE_IN_SERVICE,0.4,1.0,32.0,gps,TILTING,82785.0
18:15:10,41.58121,1.62531,11,orange,Orange,0,STATE_IN_SERVICE,4.6,1.0,74.0,gps,IN_VEHICLE,81022.0
18:15:37,41.40334,1.69852,29,orange,JAZZTEL,0,STATE_IN_SERVICE,0.1,12.0,6.0,gps,ON_FOOT,81748.0
18:15:59,42.17723,2.48143,18,movistar,Movistar,0,STATE_IN_SERVICE,0.1,8.0,8.0,gps,TILTING,171143.0
18:16:42,41.40317,1.69875,12,orange,JAZZTEL,0,STATE_IN_SERVICE,1.5,14.0,3.0,gps,TILTING,81748.0
18:16:52,41.40339,1.69858,12,orange,JAZZTEL,0,STATE_IN_SERVICE,10.5,11.0,3.0,gps,IN_VEHICLE,81748.0
18:17:12,41.64314,2.29963,4,vodafone,vodafone ES,0,STATE_IN_SERVICE,0.5,3.0,45.0,gps,STILL,80863.0
18:18:32,42.17729,2.48166,16,movistar,Movistar,0,STATE_IN_SERVICE,0.5,7.0,18.0,gps,ON_FOOT,171143.0
18:19:20,41.87845,2.28578,12,movistar,Movistar,0,STATE_IN_SERVICE,2.3,3.0,96.0,gps,UNKNOWN,82785.0
18:20:49,41.62003,2.43208,0,movistar,Movistar,0,STATE_IN_SERVICE,0.8,6.0,9.0,gps,IN_VEHICLE,80752.0
18:21:11,41.58428,1.62356,14,orange,Orange,0,STATE_IN_SERVICE,3.7,0.0,72.0,gps,UNKNOWN,81022.0
18:23:10,41.47975,1.9184,9,movistar,Movistar,0,STATE_IN_SERVICE,0.2,0.0,31.0,fused,STILL,81141.0
18:23:12,41.61978,2.43331,3,movistar,Movistar,0,STATE_IN_SERVICE,2.7,9.0,9.0,gps,IN_VEHICLE,80752.0
18:24:12,42.14325,2.45986,10,orange,JAZZTEL,0,STATE_IN_SERVICE,0.0,2.0,10.0,gps,ON_FOOT,171390.0
18:24:38,41.57745,2.25123,18,vodafone,vodafone ES,0,STATE_IN_SERVICE,86.4,3.0,11.0,gps,IN_VEHICLE,81593.0
18:24:46,41.4145,2.0175,19,movistar,Movistar,0,STATE_IN_SERVICE,0.0,4.0,8.0,gps,TILTING,81234.0
18:25:18,41.58638,1.628,17,orange,Orange,0,STATE_IN_SERVICE,6.4,4.0,16.0,gps,TILTING,81022.0
18:26:03,41.95489,2.63949,8,vodafone,vodafone ES,0,STATE_IN_SERVICE,0.2,0.0,100.0,fused,STILL,170084.0
18:26:58,41.64351,2.29989,4,vodafone,vodafone ES,0,STATE_IN_SERVICE,0.3,1.0,17.0,gps,STILL,80863.0
18:29:33,41.41484,2.01751,22,movistar,Movistar,0,STATE_IN_SERVICE,0.5,1.0,8.0,gps,TILTING,81234.0
18:30:05,41.95508,2.63982,3,vodafone,vodafone ES,0,STATE_IN_SERVICE,0.5,0.0,68.0,fused,STILL,170084.0
18:30:43,41.85085,0.96076,14,orange,Orange,0,STATE_IN_SERVICE,0.0,9.0,8.0,gps,STILL,250791.0
18:31:03,3.74285,8.76605,20,GETESA,GETESA,0,STATE_IN_SERVICE,0.1,6.0,6.0,gps,STILL,
18:31:04,41.82564,2.8929,15,vodafone,vodafone ES,0,STATE_IN_SERVICE,0.4,7.0,15.0,gps,ON_FOOT,170890.0
18:31:38,41.85111,0.96072,12,orange,Orange,0,STATE_IN_SERVICE,1.9,9.0,9.0,gps,STILL,250791.0
18:33:05,42.14352,2.45974,8,orange,JAZZTEL,0,STATE_IN_SERVICE,0.2,2.0,9.0,gps,ON_FOOT,171390.0
18:33:08,3.7427,8.76622,24,GETESA,GETESA,0,STATE_IN_SERVICE,0.7,12.0,14.0,gps,UNKNOWN,
18:33:11,41.2799,1.87501,11,movistar,movistar,0,STATE_IN_SERVICE,32.4,7.0,4.0,gps,IN_VEHICLE,82704.0
18:34:03,41.47012,1.53261,9,vodafone,vodafone ES,0,STATE_IN_SERVICE,0.0,0.0,36.0,fused,ON_FOOT,81043.0
18:34:22,41.87801,2.28594,9,movistar,Movistar,0,STATE_IN_SERVICE,0.2,2.0,48.0,gps,ON_FOOT,82785.0
18:34:41,41.87781,2.28631,8,movistar,Movistar,0,STATE_IN_SERVICE,6.9,1.0,128.0,gps,ON_FOOT,82785.0
18:34:54,41.4145,2.01746,20,movistar,Movistar,0,STATE_IN_SERVICE,0.4,1.0,7.0,gps,TILTING,81234.0
18:36:04,41.41465,2.01759,20,movistar,Movistar,0,STATE_IN_SERVICE,1.0,2.0,11.0,gps,TILTING,81234.0
18:38:23,3.75024,8.76971,26,GETESA,GETESA,0,STATE_IN_SERVICE,10.5,2.0,11.0,gps,IN_VEHICLE,
18:39:00,41.62094,2.43045,1,movistar,Movistar,0,STATE_IN_SERVICE,1.0,11.0,8.0,gps,STILL,80752.0
18:45:29,42.14363,2.45972,6,orange,JAZZTEL,0,STATE_IN_SERVICE,0.0,1.0,13.0,gps,STILL,171390.0
18:47:16,41.87553,2.2864,12,movistar,Movistar,0,STATE_IN_SERVICE,1.2,6.0,32.0,gps,TILTING,82785.0
18:47:38,3.73181,8.76806,25,GETESA,GETESA,0,STATE_IN_SERVICE,4.6,3.0,7.0,gps,UNKNOWN,
18:48:55,3.73134,8.76768,25,GETESA,GETESA,0,STATE_IN_SERVICE,3.2,3.0,9.0,gps,UNKNOWN,
18:49:20,41.87528,2.28663,9,movistar,Movistar,0,STATE_IN_SERVICE,1.0,1.0,48.0,gps,IN_VEHICLE,82785.0
18:52:21,41.22433,1.53503,16,orange,Orange,0,STATE_IN_SERVICE,0.1,1.0,20.0,gps,ON_FOOT,431634.0
18:52:51,41.2245,1.53522,19,orange,Orange,0,STATE_IN_SERVICE,3.0,4.0,37.0,gps,TILTING,431634.0
18:54:08,3.72628,8.75971,12,GETESA,GETESA,0,STATE_IN_SERVICE,14.6,0.0,32.0,gps,UNKNOWN,
18:54:21,41.8749,2.28559,12,movistar,Movistar,0,STATE_IN_SERVICE,1.1,2.0,96.0,gps,TILTING,82785.0
18:55:00,41.29091,1.98305,4,vodafone,vodafone ES,0,STATE_IN_SERVICE,0.0,0.0,30.0,fused,STILL,80569.0
18:55:02,3.72677,8.75996,6,GETESA,GETESA,0,STATE_IN_SERVICE,4.1,1.0,17.0,gps,UNKNOWN,
18:55:06,41.87538,2.28648,12,movistar,Movistar,0,STATE_IN_SERVICE,7.1,2.0,12.0,gps,TILTING,82785.0
18:56:09,41.87556,2.28648,12,movistar,Movistar,0,STATE_IN_SERVICE,1.2,2.0,12.0,gps,UNKNOWN,82785.0
18:56:33,41.47015,1.53261,5,vodafone,vodafone ES,0,STATE_IN_SERVICE,0.0,0.0,30.0,fused,STILL,81043.0
18:58:13,41.22459,1.535,21,orange,Orange,0,STATE_IN_SERVICE,0.2,3.0,29.0,gps,IN_VEHICLE,431634.0
18:58:30,41.87499,2.2864,9,movistar,Movistar,0,STATE_IN_SERVICE,1.6,1.0,48.0,gps,ON_BICYCLE,82785.0
18:58:57,41.22439,1.53531,20,orange,Orange,0,STATE_IN_SERVICE,2.8,3.0,28.0,gps,IN_VEHICLE,431634.0
18:59:14,3.72357,8.76057,6,GETESA,GETESA,0,STATE_IN_SERVICE,10.1,1.0,9.0,gps,IN_VEHICLE,
18:59:26,41.44723,2.20826,10,vodafone,vodafone ES,0,STATE_IN_SERVICE,1.3,0.0,34.0,fused,TILTING,82457.0
18:59:35,41.8754,2.28652,9,movistar,Movistar,0,STATE_IN_SERVICE,2.6,1.0,4.0,gps,TILTING,82785.0
19:00:09,3.7241,8.7627,6,GETESA,GETESA,0,STATE_IN_SERVICE,16.0,5.0,7.0,gps,IN_VEHICLE,
19:01:00,41.22445,1.53508,19,orange,Orange,0,STATE_IN_SERVICE,0.6,2.0,16.0,gps,IN_VEHICLE,431634.0
19:01:00,3.72516,8.76412,6,GETESA,GETESA,0,STATE_IN_SERVICE,13.9,2.0,14.0,gps,IN_VEHICLE,
19:01:50,3.7275,8.76617,6,GETESA,GETESA,0,STATE_IN_SERVICE,24.8,3.0,13.0,gps,IN_VEHICLE,
19:02:41,3.73062,8.76735,6,GETESA,GETESA,0,STATE_IN_SERVICE,26.1,4.0,9.0,gps,IN_VEHICLE,
19:03:44,41.82541,1.89416,9,vodafone,vodafone ES,0,STATE_IN_SERVICE,0.0,2.0,13.0,gps,UNKNOWN,81918.0
19:03:54,3.73216,8.76972,6,GETESA,GETESA,0,STATE_IN_SERVICE,15.4,2.0,20.0,gps,UNKNOWN,
19:04:11,41.95524,2.64013,7,vodafone,vodafone ES,0,STATE_IN_SERVICE,0.1,0.0,37.0,fused,IN_VEHICLE,170084.0
19:05:06,3.7322,8.7702,19,GETESA,GETESA,0,STATE_IN_SERVICE,7.6,5.0,7.0,gps,IN_VEHICLE,
19:05:42,42.1309,2.20098,20,vodafone,vodafone ES,0,STATE_IN_SERVICE,73.7,0.0,10.0,gps,IN_VEHICLE,170963.0
19:06:46,3.7291,8.78345,19,GETESA,GETESA,0,STATE_IN_SERVICE,56.6,6.0,7.0,gps,TILTING,
19:07:19,42.14347,2.4599,6,orange,JAZZTEL,0,STATE_IN_SERVICE,0.1,4.0,14.0,gps,IN_VEHICLE,171390.0
19:07:21,41.87557,2.28626,12,movistar,Movistar,0,STATE_IN_SERVICE,0.2,5.0,24.0,gps,ON_FOOT,82785.0
19:07:40,3.72949,8.7895,9,GETESA,GETESA,0,STATE_IN_SERVICE,44.6,12.0,9.0,gps,IN_VEHICLE,
19:08:25,41.50356,2.39143,8,vodafone,vodafone ES,0,STATE_IN_SERVICE,0.0,5.0,64.0,gps,TILTING,82191.0
19:08:28,3.73424,8.79302,16,GETESA,GETESA,0,STATE_IN_SERVICE,49.1,4.0,8.0,gps,IN_VEHICLE,
19:09:09,41.85102,0.96074,6,orange,Orange,0,STATE_IN_SERVICE,0.0,8.0,6.0,gps,STILL,250791.0
19:09:28,41.82556,2.89392,4,vodafone,vodafone ES,0,STATE_IN_SERVICE,0.0,1.0,36.0,gps,STILL,170890.0
19:10:29,41.87541,2.28647,12,movistar,Movistar,0,STATE_IN_SERVICE,0.5,5.0,3.0,gps,STILL,82785.0
19:10:53,41.64349,2.3001,5,vodafone,vodafone ES,0,STATE_IN_SERVICE,0.0,2.0,44.0,gps,UNKNOWN,80863.0
19:11:35,41.62503,2.28635,13,vodafone,vodafone ES,0,STATE_IN_SERVICE,0.0,3.0,18.0,gps,UNKNOWN,80410.0
19:11:46,3.74075,8.80419,22,GETESA,GETESA,0,STATE_IN_SERVICE,22.0,7.0,4.0,gps,IN_VEHICLE,
19:12:51,3.74213,8.80502,22,GETESA,GETESA,0,STATE_IN_SERVICE,9.8,8.0,5.0,gps,UNKNOWN,
19:14:29,41.50381,2.39097,0,vodafone,vodafone ES,0,STATE_IN_SERVICE,0.5,4.0,64.0,gps,TILTING,82191.0
19:14:48,42.2471,2.9382,17,movistar,movistar,0,STATE_IN_SERVICE,6.0,1.0,10.0,gps,ON_FOOT,172214.0
19:14:56,41.64352,2.29953,6,vodafone,vodafone ES,0,STATE_IN_SERVICE,0.7,1.0,37.0,gps,STILL,80863.0
19:15:20,3.74198,8.80527,22,GETESA,GETESA,0,STATE_IN_SERVICE,0.8,0.0,46.0,gps,UNKNOWN,
19:16:40,3.74175,8.80511,22,GETESA,GETESA,0,STATE_IN_SERVICE,1.4,1.0,33.0,gps,STILL,
19:16:58,41.69191,2.4907,12,movistar,Movistar,0,STATE_IN_SERVICE,0.0,2.0,18.0,gps,STILL,82021.0
19:17:43,3.74196,8.8052,22,GETESA,GETESA,0,STATE_IN_SERVICE,1.4,1.0,41.0,gps,STILL,
19:19:19,41.87813,2.28646,12,movistar,Movistar,0,STATE_IN_SERVICE,2.0,6.0,12.0,gps,ON_FOOT,82785.0
19:20:00,41.51014,2.19624,5,movistar,Movistar,0,STATE_IN_SERVICE,0.1,1.0,32.0,gps,TILTING,81056.0
19:20:52,42.14342,2.45998,7,orange,JAZZTEL,0,STATE_IN_SERVICE,0.0,3.0,32.0,gps,STILL,171390.0
19:22:54,41.85127,0.9605,9,orange,Orange,0,STATE_IN_SERVICE,0.1,6.0,46.0,gps,TILTING,250791.0
19:24:19,41.20896,1.55466,7,orange,Orange,0,STATE_IN_SERVICE,0.0,1.0,26.0,gps,UNKNOWN,431634.0
19:24:22,41.88334,2.29874,8,movistar,Movistar,0,STATE_IN_SERVICE,13.9,3.0,96.0,gps,TILTING,82785.0
19:25:40,41.50976,2.19621,23,movistar,Movistar,0,STATE_IN_SERVICE,0.4,0.0,18.0,gps,STILL,81056.0
19:27:31,41.64354,2.30022,3,vodafone,vodafone ES,0,STATE_IN_SERVICE,0.3,1.0,32.0,gps,TILTING,80863.0
19:27:53,41.62059,2.42801,7,movistar,Movistar,0,STATE_IN_SERVICE,0.0,1.0,11.0,gps,STILL,80752.0
19:30:31,41.51008,2.19624,26,movistar,Movistar,0,STATE_IN_SERVICE,0.4,3.0,20.0,gps,STILL,81056.0
19:31:53,41.52817,1.9581,10,orange,RACC,0,STATE_IN_SERVICE,0.1,0.0,40.0,fused,ON_FOOT,82900.0
19:32:57,40.71457,0.49747,5,orange,Orange,0,STATE_IN_SERVICE,0.0,2.0,34.0,gps,UNKNOWN,431384.0
19:33:45,42.23119,2.28126,11,vodafone,vodafone ES,0,STATE_IN_SERVICE,0.0,0.0,25.0,fused,STILL,171674.0
19:33:57,41.67298,2.40016,1,movistar,Tuenti,0,STATE_IN_SERVICE,0.1,2.0,128.0,gps,STILL,81982.0
19:36:40,41.67324,2.40017,0,movistar,Tuenti,0,STATE_IN_SERVICE,0.6,2.0,64.0,gps,TILTING,81982.0
19:36:46,41.96078,2.63134,7,orange,JAZZTEL,0,STATE_IN_SERVICE,0.4,5.0,10.0,gps,STILL,170084.0
19:36:54,41.59285,2.58056,31,orange,Orange,0,STATE_IN_SERVICE,0.0,3.0,11.0,gps,ON_FOOT,80403.0
19:38:42,41.47014,1.53261,3,vodafone,vodafone ES,0,STATE_IN_SERVICE,0.0,0.0,30.0,fused,STILL,81043.0
19:39:58,41.52521,1.95477,5,orange,RACC,0,STATE_IN_SERVICE,3.2,0.0,34.0,fused,ON_FOOT,82900.0
19:40:36,41.61994,2.43218,0,movistar,Movistar,0,STATE_IN_SERVICE,3.7,7.0,5.0,gps,ON_FOOT,80752.0
19:41:45,41.44711,2.20839,3,movistar,Movistar,0,STATE_IN_SERVICE,0.0,0.0,27.0,fused,IN_VEHICLE,82457.0
19:42:00,42.17697,2.48156,23,movistar,Movistar,0,STATE_IN_SERVICE,0.5,4.0,8.0,gps,TILTING,171143.0
19:42:49,40.71476,0.49722,5,orange,Orange,0,STATE_IN_SERVICE,0.2,0.0,42.0,fused,STILL,431384.0
19:44:33,41.59262,2.58032,31,orange,Orange,0,STATE_IN_SERVICE,0.3,6.0,9.0,gps,UNKNOWN,80403.0
19:44:38,42.17723,2.48161,15,movistar,Movistar,0,STATE_IN_SERVICE,0.7,2.0,34.0,gps,TILTING,171143.0
19:47:37,41.67301,2.3999,5,movistar,Tuenti,0,STATE_IN_SERVICE,0.2,2.0,30.0,fused,TILTING,81982.0
19:54:12,41.59307,2.58156,26,orange,Orange,0,STATE_IN_SERVICE,0.7,1.0,37.0,gps,STILL,80403.0
19:55:45,42.10689,3.07926,2,yoigo,YOIGO,0,STATE_IN_SERVICE,1.5,4.0,24.0,gps,UNKNOWN,170046.0
19:56:17,41.6324,0.93275,6,vodafone,vodafone ES,0,STATE_IN_SERVICE,0.0,0.0,10.0,fused,ON_FOOT,250997.0
19:58:27,41.5929,2.58076,22,orange,Orange,0,STATE_IN_SERVICE,1.0,0.0,21.0,gps,TILTING,80403.0
19:58:27,41.44721,2.20828,7,vodafone,vodafone ES,0,STATE_IN_SERVICE,0.0,0.0,39.0,fused,STILL,82457.0
20:00:49,42.00852,2.02975,11,vodafone,vodafone ES,0,STATE_IN_SERVICE,0.5,1.0,39.0,fused,ON_FOOT,81712.0
20:03:43,41.58066,1.61071,9,vodafone,vodafone ES,0,STATE_IN_SERVICE,0.2,4.0,18.0,gps,STILL,81022.0
20:05:13,41.63339,0.9322,2,vodafone,vodafone ES,0,STATE_IN_SERVICE,2.1,0.0,11.0,fused,ON_FOOT,250997.0
20:05:57,42.00857,2.0305,10,vodafone,vodafone ES,0,STATE_IN_SERVICE,0.7,1.0,37.0,fused,STILL,81712.0
20:06:10,41.85096,0.96075,12,orange,Orange,0,STATE_IN_SERVICE,0.0,8.0,3.0,gps,UNKNOWN,250791.0
20:09:51,41.59282,2.5805,17,orange,Orange,0,STATE_IN_SERVICE,0.1,1.0,37.0,gps,ON_FOOT,80403.0
20:09:55,41.29091,1.98307,4,vodafone,vodafone ES,0,STATE_IN_SERVICE,0.0,0.0,32.0,fused,STILL,80569.0
20:11:12,41.66831,2.37669,5,movistar,Tuenti,0,STATE_IN_SERVICE,13.1,2.0,24.0,fused,ON_FOOT,81982.0
20:15:47,41.58069,1.61078,54,vodafone,vodafone ES,0,STATE_IN_SERVICE,0.0,5.0,11.0,gps,STILL,81022.0
20:18:06,41.59285,2.58084,15,orange,Orange,0,STATE_IN_SERVICE,0.2,0.0,40.0,gps,ON_FOOT,80403.0
20:19:58,41.58048,1.61061,9,vodafone,vodafone ES,0,STATE_IN_SERVICE,0.4,4.0,13.0,gps,STILL,81022.0
20:20:07,41.04258,0.95842,12,vodafone,vodafone ES,0,STATE_IN_SERVICE,107.6,2.0,20.0,gps,STILL,430923.0
20:24:05,41.47975,1.91829,13,movistar,Movistar,0,STATE_IN_SERVICE,0.1,0.0,42.0,fused,ON_FOOT,81141.0
20:24:22,41.24016,1.57603,8,vodafone,vodafone ES,0,STATE_IN_SERVICE,1.1,0.0,24.0,fused,UNKNOWN,430249.0
20:25:17,41.62222,2.42751,1,movistar,Movistar,0,STATE_IN_SERVICE,6.8,0.0,18.0,gps,UNKNOWN,80752.0
20:26:21,41.62202,2.42752,0,movistar,Movistar,0,STATE_IN_SERVICE,1.3,1.0,12.0,gps,UNKNOWN,80752.0
20:29:24,41.44378,1.86661,5,orange,JAZZTEL,0,STATE_IN_SERVICE,0.0,0.0,25.0,fused,STILL,80919.0
20:29:56,41.53098,2.29891,2,movistar,Movistar,0,STATE_IN_SERVICE,0.0,8.0,8.0,gps,STILL,82969.0
20:30:06,41.58073,1.61083,11,vodafone,vodafone ES,0,STATE_IN_SERVICE,0.2,3.0,18.0,gps,STILL,81022.0
20:30:20,42.21835,2.55287,13,movistar,Movistar,0,STATE_IN_SERVICE,0.1,3.0,96.0,gps,ON_FOOT,171851.0
20:30:20,41.58243,1.62565,17,orange,Orange,0,STATE_IN_SERVICE,1.7,1.0,146.0,gps,TILTING,81022.0
20:31:17,41.62204,2.42723,4,movistar,Movistar,0,STATE_IN_SERVICE,0.3,2.0,23.0,gps,STILL,80752.0
20:33:40,41.82518,1.89507,12,vodafone,vodafone ES,0,STATE_IN_SERVICE,4.8,2.0,24.0,gps,IN_VEHICLE,81918.0
20:37:02,41.44715,2.20835,6,movistar,Movistar,0,STATE_IN_SERVICE,2.6,0.0,36.0,fused,STILL,82457.0
20:37:39,41.78208,3.03137,16,vodafone,vodafone ES,0,STATE_IN_SERVICE,0.0,5.0,17.0,gps,ON_FOOT,171609.0
20:41:39,41.7862,3.03103,5,vodafone,vodafone ES,0,STATE_IN_SERVICE,1.8,3.0,18.0,gps,STILL,171609.0
20:42:33,42.14358,2.45971,7,orange,JAZZTEL,0,STATE_IN_SERVICE,0.0,0.0,31.0,fused,STILL,171390.0
20:43:20,41.59281,2.58054,14,orange,Orange,0,STATE_IN_SERVICE,0.1,2.0,34.0,gps,STILL,80403.0
20:43:38,41.11931,1.18351,2,movistar,Movistar,0,STATE_IN_SERVICE,0.7,0.0,23.0,gps,STILL,439076.0
20:44:51,41.59258,2.58038,14,orange,Orange,0,STATE_IN_SERVICE,1.1,0.0,32.0,gps,ON_FOOT,80403.0
20:45:03,41.1192,1.18327,1,movistar,Movistar,0,STATE_IN_SERVICE,1.0,6.0,20.0,gps,STILL,439076.0
20:46:11,41.11941,1.18343,1,movistar,Movistar,0,STATE_IN_SERVICE,1.4,4.0,21.0,gps,STILL,439076.0
20:46:34,41.5307,2.29872,9,movistar,Movistar,0,STATE_IN_SERVICE,0.0,1.0,20.0,gps,UNKNOWN,82969.0
20:48:26,41.53085,2.29902,9,movistar,Movistar,0,STATE_IN_SERVICE,1.0,1.0,22.0,gps,STILL,82969.0
20:49:16,41.53133,2.29805,11,movistar,Movistar,0,STATE_IN_SERVICE,6.9,3.0,31.0,gps,IN_VEHICLE,82969.0
20:50:12,41.53103,2.29852,11,movistar,Movistar,0,STATE_IN_SERVICE,3.3,2.0,19.0,gps,IN_VEHICLE,82969.0
20:50:22,41.74856,2.56104,54,orange,simyo,0,STATE_IN_SERVICE,0.0,0.0,42.0,fused,STILL,170274.0
20:52:35,41.31096,1.62515,11,vodafone,vodafone ES,0,STATE_IN_SERVICE,137.6,1.0,15.0,gps,STILL,80581.0
20:52:58,42.10425,1.85456,8,orange,Orange,0,STATE_IN_SERVICE,0.0,0.0,36.0,fused,ON_FOOT,80229.0
20:53:35,41.77958,2.52325,10,vodafone,vodafone ES,0,STATE_IN_SERVICE,0.4,2.0,47.0,gps,UNKNOWN,171463.0
20:57:47,42.10233,1.85714,8,orange,Orange,0,STATE_IN_SERVICE,3.8,0.0,37.0,fused,ON_FOOT,80229.0
20:58:34,41.77951,2.52478,10,vodafone,vodafone ES,0,STATE_IN_SERVICE,1.5,4.0,28.0,gps,TILTING,171463.0
20:59:31,41.69144,2.49052,13,movistar,Movistar,0,STATE_IN_SERVICE,0.0,0.0,36.0,fused,STILL,82021.0
21:00:58,41.95521,2.64008,7,vodafone,vodafone ES,0,STATE_IN_SERVICE,0.0,0.0,90.0,fused,TILTING,170084.0
21:01:31,40.7172,0.49274,9,orange,Orange,0,STATE_IN_SERVICE,5.1,0.0,39.0,fused,STILL,431384.0
21:02:35,41.87719,2.20709,65,vodafone,vodafone ES,0,STATE_IN_SERVICE,0.0,0.0,29.0,fused,STILL,81290.0
21:03:26,41.11923,1.18317,3,movistar,Movistar,0,STATE_IN_SERVICE,0.1,6.0,14.0,gps,STILL,439076.0
21:05:05,41.53053,2.29889,3,movistar,Movistar,0,STATE_IN_SERVICE,0.9,1.0,13.0,gps,STILL,82969.0
21:05:06,41.22854,1.03417,8,orange,Orange,0,STATE_IN_SERVICE,1.1,0.0,25.0,fused,UNKNOWN,431690.0
21:06:15,41.20931,1.5554,2,orange,Orange,0,STATE_IN_SERVICE,0.0,2.0,33.0,gps,UNKNOWN,431634.0
21:07:47,42.10341,3.14745,11,yoigo,YOIGO,0,STATE_IN_SERVICE,0.0,0.0,30.0,gps,STILL,170622.0
21:08:08,41.58216,1.62546,27,orange,Orange,0,STATE_IN_SERVICE,0.1,2.0,80.0,gps,IN_VEHICLE,81022.0
21:12:06,41.48855,2.13446,15,orange,Orange,0,STATE_IN_SERVICE,1.5,0.0,45.0,fused,IN_VEHICLE,82665.0
21:14:37,41.59274,2.58001,13,orange,Orange,0,STATE_IN_SERVICE,0.1,2.0,32.0,gps,ON_FOOT,80403.0
21:18:59,41.37648,2.07697,24,vodafone,vodafone ES,0,STATE_IN_SERVICE,81.6,4.0,13.0,gps,STILL,82212.0
21:19:50,41.38138,2.08858,9,vodafone,vodafone ES,0,STATE_IN_SERVICE,78.6,3.0,20.0,gps,STILL,80771.0
21:23:04,42.15577,2.98979,0,yoigo,Yoigo,0,STATE_IN_SERVICE,0.0,2.0,7.0,gps,UNKNOWN,171766.0
21:26:14,42.15118,2.99076,0,yoigo,Yoigo,0,STATE_IN_SERVICE,9.8,1.0,7.0,gps,IN_VEHICLE,171766.0
21:27:09,42.15061,2.9903,0,yoigo,Yoigo,0,STATE_IN_SERVICE,4.8,16.0,12.0,gps,IN_VEHICLE,171766.0
21:27:19,41.22829,1.03301,0,orange,Orange,0,STATE_IN_SERVICE,0.3,0.0,24.0,fused,UNKNOWN,431690.0
21:28:00,42.10367,3.14736,18,yoigo,YOIGO,0,STATE_IN_SERVICE,0.1,0.0,28.0,gps,STILL,170622.0
21:28:18,42.15051,2.98936,0,yoigo,Yoigo,0,STATE_IN_SERVICE,4.1,11.0,18.0,gps,ON_FOOT,171766.0
21:29:53,41.63059,1.85584,9,movistar,Movistar,0,STATE_IN_SERVICE,0.0,3.0,27.0,gps,STILL,80538.0
21:30:01,42.15019,2.98922,0,yoigo,Yoigo,0,STATE_IN_SERVICE,1.3,2.0,11.0,gps,ON_FOOT,171766.0
21:38:21,42.15008,2.9894,0,yoigo,Yoigo,0,STATE_IN_SERVICE,0.1,3.0,12.0,gps,TILTING,171766.0
21:38:42,42.1501,2.98913,0,yoigo,Yoigo,0,STATE_IN_SERVICE,3.9,6.0,11.0,gps,STILL,171766.0
21:44:52,42.15024,2.98937,0,yoigo,Yoigo,0,STATE_IN_SERVICE,0.3,6.0,16.0,gps,STILL,171766.0
21:46:57,42.14994,2.98975,1,yoigo,Yoigo,0,STATE_IN_SERVICE,1.3,0.0,22.0,gps,TILTING,171766.0
21:48:24,41.85112,0.96055,4,orange,Orange,0,STATE_IN_SERVICE,0.0,6.0,13.0,gps,UNKNOWN,250791.0
21:51:28,41.50975,2.19586,24,movistar,Movistar,0,STATE_IN_SERVICE,0.0,1.0,20.0,gps,STILL,81056.0
21:53:20,41.22829,1.03301,2,orange,Orange,0,STATE_IN_SERVICE,0.2,0.0,24.0,fused,STILL,431690.0
21:55:26,41.85094,0.96076,11,orange,Orange,0,STATE_IN_SERVICE,0.2,1.0,20.0,gps,IN_VEHICLE,250791.0
21:55:45,41.88291,2.29851,7,movistar,Movistar,0,STATE_IN_SERVICE,0.0,0.0,32.0,gps,UNKNOWN,82785.0
21:57:31,41.444,1.86631,16,orange,JAZZTEL,0,STATE_IN_SERVICE,0.0,0.0,28.0,fused,STILL,80919.0
21:59:03,41.42268,2.22069,12,orange,Orange,0,STATE_IN_SERVICE,0.3,0.0,37.0,fused,UNKNOWN,81944.0
21:59:59,41.85094,0.96077,11,orange,Orange,0,STATE_IN_SERVICE,0.0,6.0,25.0,gps,STILL,250791.0
22:01:34,42.14362,2.46031,8,orange,JAZZTEL,0,STATE_IN_SERVICE,0.0,2.0,19.0,gps,STILL,171390.0
22:02:35,42.25612,2.94931,7,movistar,movistar,0,STATE_IN_SERVICE,0.1,3.0,15.0,gps,UNKNOWN,172214.0
22:02:46,42.15033,2.98932,1,yoigo,Yoigo,0,STATE_IN_SERVICE,0.1,2.0,42.0,gps,TILTING,171766.0
22:03:01,41.47977,1.91845,12,movistar,Movistar,0,STATE_IN_SERVICE,3.4,0.0,39.0,fused,ON_FOOT,81141.0
22:03:18,41.4798,1.91842,14,movistar,Movistar,0,STATE_IN_SERVICE,0.0,0.0,40.0,fused,ON_FOOT,81141.0
22:04:55,42.25627,2.94947,10,movistar,movistar,0,STATE_IN_SERVICE,0.6,0.0,13.0,gps,UNKNOWN,172214.0
22:06:34,42.1499,2.98879,2,yoigo,Yoigo,0,STATE_IN_SERVICE,1.0,2.0,14.0,gps,TILTING,171766.0
22:11:56,41.64329,2.29981,9,vodafone,vodafone ES,0,STATE_IN_SERVICE,0.0,2.0,14.0,gps,STILL,80863.0
22:12:38,42.15019,2.98935,8,yoigo,Yoigo,0,STATE_IN_SERVICE,0.6,3.0,13.0,gps,STILL,171766.0
22:12:54,41.48507,2.30427,12,movistar,Movistar,0,STATE_IN_SERVICE,0.0,2.0,34.0,gps,UNKNOWN,80039.0
22:13:06,41.52748,1.95732,3,orange,RACC,0,STATE_IN_SERVICE,3.1,0.0,36.0,fused,UNKNOWN,82900.0
22:15:22,42.17698,2.48174,7,movistar,Movistar,0,STATE_IN_SERVICE,0.8,1.0,15.0,gps,TILTING,171143.0
22:15:33,41.51008,2.19629,7,movistar,Movistar,0,STATE_IN_SERVICE,0.1,0.0,19.0,gps,TILTING,81056.0
22:18:06,42.15002,2.98854,2,yoigo,Yoigo,0,STATE_IN_SERVICE,0.8,4.0,32.0,gps,TILTING,171766.0
22:18:24,41.53076,2.29902,5,movistar,Movistar,0,STATE_IN_SERVICE,0.0,3.0,47.0,gps,TILTING,82969.0
22:18:46,41.52513,1.95562,14,orange,RACC,0,STATE_IN_SERVICE,3.1,0.0,34.0,fused,ON_FOOT,82900.0
22:19:15,42.1505,2.98961,2,yoigo,Yoigo,0,STATE_IN_SERVICE,5.4,14.0,16.0,gps,TILTING,171766.0
22:19:30,41.53041,2.29885,7,movistar,Movistar,0,STATE_IN_SERVICE,2.3,3.0,20.0,gps,TILTING,82969.0
22:20:09,41.47976,1.91846,14,movistar,Movistar,0,STATE_IN_SERVICE,1.9,0.0,30.0,fused,TILTING,81141.0
22:20:47,41.53061,2.29907,7,movistar,Movistar,0,STATE_IN_SERVICE,1.4,1.0,22.0,gps,TILTING,82969.0
22:25:20,41.71674,2.15389,17,vodafone,vodafone ES,0,STATE_IN_SERVICE,68.8,4.0,31.0,gps,IN_VEHICLE,82107.0
22:26:21,41.70692,2.15568,17,vodafone,vodafone ES,0,STATE_IN_SERVICE,64.6,1.0,27.0,gps,IN_VEHICLE,82107.0
22:27:23,41.70273,2.16337,17,vodafone,vodafone ES,0,STATE_IN_SERVICE,46.2,2.0,24.0,gps,IN_VEHICLE,82107.0
22:28:25,41.69647,2.1678,17,vodafone,vodafone ES,0,STATE_IN_SERVICE,45.7,3.0,32.0,gps,IN_VEHICLE,82107.0
22:29:48,41.68955,2.17008,17,vodafone,vodafone ES,0,STATE_IN_SERVICE,34.3,3.0,33.0,gps,IN_VEHICLE,82107.0
22:30:42,41.4227,2.22062,0,orange,Orange,0,STATE_IN_SERVICE,1.1,0.0,36.0,fused,ON_FOOT,81944.0
22:31:01,41.68457,2.16291,17,vodafone,vodafone ES,0,STATE_IN_SERVICE,40.1,3.0,38.0,gps,IN_VEHICLE,82107.0
22:31:42,42.25675,2.94944,10,movistar,movistar,0,STATE_IN_SERVICE,0.1,0.0,26.0,gps,TILTING,172214.0
22:31:52,41.67968,2.1634,17,vodafone,vodafone ES,0,STATE_IN_SERVICE,38.4,6.0,34.0,gps,IN_VEHICLE,82107.0
22:32:55,41.66896,2.16442,17,vodafone,vodafone ES,0,STATE_IN_SERVICE,68.3,3.0,49.0,gps,IN_VEHICLE,80333.0
22:33:30,41.52532,1.9545,7,orange,RACC,0,STATE_IN_SERVICE,0.4,0.0,35.0,fused,STILL,82900.0
22:33:54,41.65723,2.16314,17,vodafone,vodafone ES,0,STATE_IN_SERVICE,79.7,3.0,70.0,gps,IN_VEHICLE,80333.0
22:34:03,41.5931,2.58014,12,orange,Orange,0,STATE_IN_SERVICE,0.0,0.0,23.0,gps,STILL,80403.0
22:34:51,41.6495,2.16157,17,vodafone,vodafone ES,0,STATE_IN_SERVICE,54.8,7.0,20.0,gps,IN_VEHICLE,80333.0
22:35:51,41.6408,2.16521,17,vodafone,vodafone ES,0,STATE_IN_SERVICE,61.2,2.0,10.0,gps,IN_VEHICLE,80333.0
22:36:46,41.63282,2.17398,17,vodafone,vodafone ES,0,STATE_IN_SERVICE,74.2,7.0,29.0,gps,IN_VEHICLE,80333.0
22:37:15,41.52985,2.29994,4,movistar,Movistar,0,STATE_IN_SERVICE,0.4,3.0,27.0,gps,IN_VEHICLE,82969.0
22:37:49,41.62116,2.17321,17,vodafone,vodafone ES,0,STATE_IN_SERVICE,74.5,7.0,54.0,gps,IN_VEHICLE,80333.0
22:38:29,41.52912,2.30059,11,movistar,Movistar,0,STATE_IN_SERVICE,4.7,5.0,25.0,gps,ON_FOOT,82969.0
22:38:49,41.6093,2.17949,17,vodafone,vodafone ES,0,STATE_IN_SERVICE,85.0,2.0,27.0,gps,IN_VEHICLE,80333.0
22:39:47,41.59798,2.18061,17,vodafone,vodafone ES,0,STATE_IN_SERVICE,77.9,2.0,25.0,gps,IN_VEHICLE,81568.0
22:39:58,41.48538,2.30505,14,movistar,Movistar,0,STATE_IN_SERVICE,0.3,0.0,26.0,gps,UNKNOWN,80039.0
22:40:57,41.58796,2.17982,17,vodafone,vodafone ES,0,STATE_IN_SERVICE,58.1,4.0,48.0,gps,IN_VEHICLE,81568.0
22:41:57,41.58457,2.18024,17,vodafone,vodafone ES,0,STATE_IN_SERVICE,22.4,4.0,24.0,gps,IN_VEHICLE,81568.0
22:42:25,40.71471,0.49747,8,orange,Orange,0,STATE_IN_SERVICE,1.1,0.0,36.0,fused,STILL,431384.0
22:42:56,41.57772,2.18177,17,vodafone,vodafone ES,0,STATE_IN_SERVICE,47.1,2.0,36.0,gps,IN_VEHICLE,81568.0
22:43:57,41.57088,2.1832,17,vodafone,vodafone ES,0,STATE_IN_SERVICE,45.4,5.0,28.0,gps,IN_VEHICLE,81568.0
22:44:55,41.56145,2.18487,17,vodafone,vodafone ES,0,STATE_IN_SERVICE,65.6,3.0,29.0,gps,IN_VEHICLE,81568.0
22:49:27,41.51718,2.20827,17,vodafone,vodafone ES,0,STATE_IN_SERVICE,65.8,4.0,21.0,gps,IN_VEHICLE,81056.0
22:50:22,41.48502,2.30492,15,movistar,Movistar,0,STATE_IN_SERVICE,0.2,3.0,15.0,gps,UNKNOWN,80039.0
22:50:25,41.50621,2.19925,17,vodafone,vodafone ES,0,STATE_IN_SERVICE,87.9,4.0,38.0,gps,IN_VEHICLE,81056.0
22:51:22,41.50287,2.18554,17,vodafone,vodafone ES,0,STATE_IN_SERVICE,75.9,4.0,19.0,gps,IN_VEHICLE,81252.0
22:51:24,41.50268,2.18546,17,vodafone,vodafone ES,0,STATE_IN_SERVICE,40.3,4.0,24.0,gps,IN_VEHICLE,81252.0
22:51:38,41.668,2.37569,4,movistar,Tuenti,0,STATE_IN_SERVICE,0.0,2.0,96.0,fused,STILL,81982.0
22:52:18,41.49058,2.18377,17,vodafone,vodafone ES,0,STATE_IN_SERVICE,90.1,3.0,41.0,gps,IN_VEHICLE,81252.0
22:53:25,41.4779,2.1863,17,vodafone,vodafone ES,0,STATE_IN_SERVICE,76.5,3.0,7.0,gps,IN_VEHICLE,81252.0
22:53:36,41.42268,2.22068,17,orange,Orange,0,STATE_IN_SERVICE,0.2,0.0,36.0,fused,STILL,81944.0
22:54:24,41.4675,2.17796,17,vodafone,vodafone ES,0,STATE_IN_SERVICE,82.3,7.0,36.0,gps,IN_VEHICLE,81252.0
22:56:38,41.48519,2.30466,15,movistar,Movistar,0,STATE_IN_SERVICE,0.3,3.0,8.0,gps,STILL,80039.0
22:57:39,41.48548,2.3047,17,movistar,Movistar,0,STATE_IN_SERVICE,1.9,1.0,15.0,gps,STILL,80039.0
22:59:38,41.69101,2.28187,3,vodafone,vodafone ES,0,STATE_IN_SERVICE,0.0,0.0,36.0,fused,STILL,80885.0
23:00:26,41.60077,2.62232,12,movistar,Movistar,0,STATE_IN_SERVICE,0.0,0.0,34.0,fused,STILL,82359.0
23:05:05,42.14346,2.45956,7,orange,JAZZTEL,0,STATE_IN_SERVICE,0.0,2.0,25.0,gps,TILTING,171390.0
23:05:39,41.32724,0.63857,27,orange,Orange,0,STATE_IN_SERVICE,1.1,1.0,28.0,fused,TILTING,250560.0
23:05:46,41.29385,1.77743,4,movistar,movistar,0,STATE_IN_SERVICE,0.0,0.0,36.0,gps,STILL,81483.0
23:08:01,41.48499,2.30452,17,movistar,Movistar,0,STATE_IN_SERVICE,1.7,1.0,17.0,gps,STILL,80039.0
23:08:18,41.20097,1.67793,1,movistar,Movistar,0,STATE_IN_SERVICE,0.0,2.0,25.0,gps,UNKNOWN,80749.0
23:09:06,41.4852,2.30511,15,movistar,Movistar,0,STATE_IN_SERVICE,3.1,1.0,22.0,gps,STILL,80039.0
23:09:53,42.10284,3.14745,21,yoigo,YOIGO,0,STATE_IN_SERVICE,0.0,2.0,29.0,gps,TILTING,171997.0
23:11:05,41.4853,2.30476,13,movistar,Movistar,0,STATE_IN_SERVICE,0.9,2.0,16.0,gps,STILL,80039.0
23:12:47,42.10362,3.14789,23,yoigo,YOIGO,0,STATE_IN_SERVICE,1.9,2.0,47.0,gps,STILL,170622.0
23:13:57,41.44156,1.86876,2,orange,JAZZTEL,0,STATE_IN_SERVICE,0.0,3.0,12.0,gps,TILTING,80919.0
23:15:23,41.44159,1.86907,11,orange,JAZZTEL,0,STATE_IN_SERVICE,1.1,2.0,16.0,gps,IN_VEHICLE,80919.0
23:15:38,41.2286,1.03428,9,orange,Orange,0,STATE_IN_SERVICE,0.9,0.0,30.0,fused,STILL,431690.0
23:16:04,41.29373,1.77869,8,movistar,movistar,0,STATE_IN_SERVICE,0.6,0.0,12.0,gps,TILTING,81483.0
23:18:21,41.44468,2.21584,3,vodafone,vodafone ES,0,STATE_IN_SERVICE,0.0,0.0,44.0,fused,STILL,82457.0
23:22:58,41.42259,2.22157,12,orange,Orange,0,STATE_IN_SERVICE,0.2,0.0,31.0,fused,STILL,81944.0
23:23:59,41.59255,2.57996,14,orange,Orange,0,STATE_IN_SERVICE,0.1,1.0,27.0,gps,ON_FOOT,80403.0
23:26:02,41.209,1.55512,5,orange,Orange,0,STATE_IN_SERVICE,0.0,3.0,12.0,gps,STILL,431634.0
23:26:24,42.25622,2.94953,7,movistar,movistar,0,STATE_IN_SERVICE,0.1,2.0,18.0,gps,STILL,172214.0
23:27:10,41.5928,2.58053,14,orange,Orange,0,STATE_IN_SERVICE,1.0,2.0,20.0,gps,UNKNOWN,80403.0
23:32:47,41.30642,2.00693,10,movistar,movistar,0,STATE_IN_SERVICE,0.8,0.0,33.0,fused,STILL,80898.0
23:35:37,41.42274,2.22105,18,orange,Orange,0,STATE_IN_SERVICE,0.2,0.0,79.0,fused,STILL,81944.0
23:36:17,41.50618,2.3893,10,movistar,Movistar,0,STATE_IN_SERVICE,0.0,0.0,30.0,fused,STILL,82191.0
23:40:32,41.48431,1.70157,5,orange,Orange,0,STATE_IN_SERVICE,63.5,1.0,139.0,gps,IN_VEHICLE,80288.0
23:45:09,41.42502,1.68418,5,orange,Orange,0,STATE_IN_SERVICE,87.5,0.0,148.0,gps,IN_VEHICLE,80850.0
23:45:11,41.42258,2.22158,12,orange,Orange,0,STATE_IN_SERVICE,0.3,0.0,30.0,fused,STILL,81944.0
23:46:40,41.864,2.65519,24,movistar,Movistar,0,STATE_IN_SERVICE,0.1,0.0,33.0,gps,STILL,171805.0
23:47:09,41.20098,1.67768,2,movistar,Movistar,0,STATE_IN_SERVICE,0.0,0.0,36.0,fused,UNKNOWN,80749.0
23:48:25,42.10342,3.1474,18,yoigo,YOIGO,0,STATE_IN_SERVICE,0.0,1.0,43.0,gps,STILL,170622.0
23:54:31,41.67117,0.53362,25,vodafone,vodafone ES,0,STATE_IN_SERVICE,0.4,2.0,15.0,gps,TILTING,250236.0
